{
"type": "FeatureCollection",
"name": "sql_statement",
"features": [
{ "type": "Feature", "properties": { "id": 1, "address": "145 Walnut Ave, Ardmore, PA 19003", "city": "Ardmore", "state": "PA", "zip": "19003", "price": 399900, "beds": 3, "baths": 1.5, "url": null, "school_district": "Lower Merion", "county_name": "MONTGOMERY", "good_district": true }, "geometry": { "type": "Point", "coordinates": [ -75.295002, 40.003875 ] } },
{ "type": "Feature", "properties": { "id": 2, "address": "111 St Pauls Rd, Ardmore, PA 19003", "city": "Ardmore", "state": "PA", "zip": "19003", "price": 1950000, "beds": 5, "baths": 4.0, "url": null, "school_district": "Lower Merion", "county_name": "MONTGOMERY", "good_district": true }, "geometry": { "type": "Point", "coordinates": [ -75.291632, 40.0035 ] } },
{ "type": "Feature", "properties": { "id": 3, "address": "114 Llanfair Rd, Ardmore, PA 19003", "city": "Ardmore", "state": "PA", "zip": "19003", "price": 1700000, "beds": 7, "baths": 4.5, "url": null, "school_district": "Lower Merion", "county_name": "MONTGOMERY", "good_district": true }, "geometry": { "type": "Point", "coordinates": [ -75.28463, 40.010203 ] } },
{ "type": "Feature", "properties": { "id": 4, "address": "219 E Montgomery Ave, Unit 6, Ardmore, PA 19003", "city": "Ardmore", "state": "PA", "zip": "19003", "price": 1650000, "beds": 3, "baths": 4.0, "url": null, "school_district": "Lower Merion", "county_name": "MONTGOMERY", "good_district": true }, "geometry": { "type": "Point", "coordinates": [ -75.28275, 40.009417 ] } },
{ "type": "Feature", "properties": { "id": 5, "address": "754 Oak View Rd, Ardmore, PA 19003", "city": "Ardmore", "state": "PA", "zip": "19003", "price": 455000, "beds": 3, "baths": 1.0, "url": null, "school_district": "Haverford Township", "county_name": "DELAWARE", "good_district": true }, "geometry": { "type": "Point", "coordinates": [ -75.298993, 39.999641 ] } },
{ "type": "Feature", "properties": { "id": 6, "address": "818 Clifford Ave, Ardmore, PA 19003", "city": "Ardmore", "state": "PA", "zip": "19003", "price": 590000, "beds": 1, "baths": 2.0, "url": null, "school_district": "Haverford Township", "county_name": "DELAWARE", "good_district": true }, "geometry": { "type": "Point", "coordinates": [ -75.299676, 40.004706 ] } },
{ "type": "Feature", "properties": { "id": 7, "address": "801 Ardmore Ave, Ardmore, PA 19003", "city": "Ardmore", "state": "PA", "zip": "19003", "price": 542500, "beds": 5, "baths": 1.5, "url": null, "school_district": "Haverford Township", "county_name": "DELAWARE", "good_district": true }, "geometry": { "type": "Point", "coordinates": [ -75.300564, 40.00468 ] } },
{ "type": "Feature", "properties": { "id": 8, "address": "825 Aubrey Ave, Ardmore, PA 19003", "city": "Ardmore", "state": "PA", "zip": "19003", "price": 550000, "beds": 4, "baths": 2.0, "url": null, "school_district": "Haverford Township", "county_name": "DELAWARE", "good_district": true }, "geometry": { "type": "Point", "coordinates": [ -75.298598, 40.002499 ] } },
{ "type": "Feature", "properties": { "id": 9, "address": "618 Georges Ln, Ardmore, PA 19003", "city": "Ardmore", "state": "PA", "zip": "19003", "price": 549900, "beds": 4, "baths": 2.0, "url": null, "school_district": "Haverford Township", "county_name": "DELAWARE", "good_district": true }, "geometry": { "type": "Point", "coordinates": [ -75.304241, 39.999228 ] } },
{ "type": "Feature", "properties": { "id": 10, "address": "221 Ardmore Ave, Ardmore, PA 19003", "city": "Ardmore", "state": "PA", "zip": "19003", "price": 550000, "beds": 5, "baths": 1.5, "url": null, "school_district": "Lower Merion", "county_name": "MONTGOMERY", "good_district": true }, "geometry": { "type": "Point", "coordinates": [ -75.299091, 40.005493 ] } },
{ "type": "Feature", "properties": { "id": 11, "address": "700 Ardmore Ave, Apt 510, Ardmore, PA 19003", "city": "Ardmore", "state": "PA", "zip": "19003", "price": 395000, "beds": 2, "baths": 2.5, "url": null, "school_district": "Haverford Township", "county_name": "DELAWARE", "good_district": true }, "geometry": { "type": "Point", "coordinates": [ -75.302574, 40.004916 ] } },
{ "type": "Feature", "properties": { "id": 12, "address": "2316 Kenilworth Rd, Ardmore, PA 19003", "city": "Ardmore", "state": "PA", "zip": "19003", "price": 429900, "beds": 3, "baths": 1.5, "url": null, "school_district": "Haverford Township", "county_name": "DELAWARE", "good_district": true }, "geometry": { "type": "Point", "coordinates": [ -75.297035, 39.993694 ] } },
{ "type": "Feature", "properties": { "id": 13, "address": "2438 E County Line Rd, Ardmore, PA 19003", "city": "Ardmore", "state": "PA", "zip": "19003", "price": 475000, "beds": 3, "baths": 2.5, "url": null, "school_district": "Haverford Township", "county_name": "DELAWARE", "good_district": true }, "geometry": { "type": "Point", "coordinates": [ -75.293962, 39.997929 ] } },
{ "type": "Feature", "properties": { "id": 14, "address": "154 Grandview Rd, Ardmore, PA 19003", "city": "Ardmore", "state": "PA", "zip": "19003", "price": 620000, "beds": 3, "baths": 1.5, "url": null, "school_district": "Lower Merion", "county_name": "MONTGOMERY", "good_district": true }, "geometry": { "type": "Point", "coordinates": [ -75.292595, 40.000923 ] } },
{ "type": "Feature", "properties": { "id": 15, "address": "21 Chatham Rd, Ardmore, PA 19003", "city": "Ardmore", "state": "PA", "zip": "19003", "price": 549000, "beds": 3, "baths": 1.0, "url": null, "school_district": "Lower Merion", "county_name": "MONTGOMERY", "good_district": true }, "geometry": { "type": "Point", "coordinates": [ -75.284742, 40.003679 ] } },
{ "type": "Feature", "properties": { "id": 16, "address": "Penn Ave, Bala Cynwyd, PA 19004", "city": "Bala Cynwyd", "state": "PA", "zip": "19004", "price": 105000, "beds": null, "baths": null, "url": null, "school_district": "Lower Merion", "county_name": "MONTGOMERY", "good_district": true }, "geometry": { "type": "Point", "coordinates": [ -75.2311313, 40.025286 ] } },
{ "type": "Feature", "properties": { "id": 17, "address": "205 Ebenezer Ave, Bala Cynwyd, PA 19004", "city": "Bala Cynwyd", "state": "PA", "zip": "19004", "price": 274900, "beds": 2, "baths": 1.0, "url": null, "school_district": "Lower Merion", "county_name": "MONTGOMERY", "good_district": true }, "geometry": { "type": "Point", "coordinates": [ -75.238097, 40.027685 ] } },
{ "type": "Feature", "properties": { "id": 18, "address": "41 Conshohocken State Rd, Apt 109, Bala Cynwyd, PA 19004", "city": "Bala Cynwyd", "state": "PA", "zip": "19004", "price": 459000, "beds": 2, "baths": 2.0, "url": null, "school_district": "Lower Merion", "county_name": "MONTGOMERY", "good_district": true }, "geometry": { "type": "Point", "coordinates": [ -75.227664, 40.00416 ] } },
{ "type": "Feature", "properties": { "id": 19, "address": "195-205 Belmont Ave, Bala Cynwyd, PA 19004", "city": "Bala Cynwyd", "state": "PA", "zip": "19004", "price": 1600000, "beds": 12, "baths": 7.5, "url": null, "school_district": "Lower Merion", "county_name": "MONTGOMERY", "good_district": true }, "geometry": { "type": "Point", "coordinates": [ -75.2313, 40.022835 ] } },
{ "type": "Feature", "properties": { "id": 20, "address": "201 Jefferson St, Bala Cynwyd, PA 19004", "city": "Bala Cynwyd", "state": "PA", "zip": "19004", "price": 675000, "beds": null, "baths": null, "url": null, "school_district": "Lower Merion", "county_name": "MONTGOMERY", "good_district": true }, "geometry": { "type": "Point", "coordinates": [ -75.238154, 40.028587 ] } },
{ "type": "Feature", "properties": { "id": 21, "address": "317 Marywatersford Rd, Bala Cynwyd, PA 19004", "city": "Bala Cynwyd", "state": "PA", "zip": "19004", "price": 575000, "beds": 2, "baths": 1.0, "url": null, "school_district": "Lower Merion", "county_name": "MONTGOMERY", "good_district": true }, "geometry": { "type": "Point", "coordinates": [ -75.239417, 40.027398 ] } },
{ "type": "Feature", "properties": { "id": 22, "address": "162 Union Ave, Bala Cynwyd, PA 19004", "city": "Bala Cynwyd", "state": "PA", "zip": "19004", "price": 1250000, "beds": 6, "baths": 4.0, "url": null, "school_district": "Lower Merion", "county_name": "MONTGOMERY", "good_district": true }, "geometry": { "type": "Point", "coordinates": [ -75.237117, 39.999841 ] } },
{ "type": "Feature", "properties": { "id": 23, "address": "191 Presidential Blvd, Unit R524, Bala Cynwyd, PA 19004", "city": "Bala Cynwyd", "state": "PA", "zip": "19004", "price": 175000, "beds": 1, "baths": 1.0, "url": null, "school_district": "Lower Merion", "county_name": "MONTGOMERY", "good_district": true }, "geometry": { "type": "Point", "coordinates": [ -75.215839, 40.012154 ] } },
{ "type": "Feature", "properties": { "id": 24, "address": "50 Belmont Ave, Apt 401, Bala Cynwyd, PA 19004", "city": "Bala Cynwyd", "state": "PA", "zip": "19004", "price": 249900, "beds": 1, "baths": 1.0, "url": null, "school_district": "Lower Merion", "county_name": "MONTGOMERY", "good_district": true }, "geometry": { "type": "Point", "coordinates": [ -75.223472, 40.005857 ] } },
{ "type": "Feature", "properties": { "id": 25, "address": "20 Conshohocken State Rd, Apt 611, Bala Cynwyd, PA 19004", "city": "Bala Cynwyd", "state": "PA", "zip": "19004", "price": 285000, "beds": 2, "baths": 2.0, "url": null, "school_district": "Lower Merion", "county_name": "MONTGOMERY", "good_district": true }, "geometry": { "type": "Point", "coordinates": [ -75.228105, 40.002456 ] } },
{ "type": "Feature", "properties": { "id": 26, "address": "19 Rock Hill Rd, Apt 7D, Bala Cynwyd, PA 19004", "city": "Bala Cynwyd", "state": "PA", "zip": "19004", "price": 249900, "beds": 2, "baths": 2.0, "url": null, "school_district": "Lower Merion", "county_name": "MONTGOMERY", "good_district": true }, "geometry": { "type": "Point", "coordinates": [ -75.24045, 40.019299 ] } },
{ "type": "Feature", "properties": { "id": 27, "address": "54 Highland Ave, Belmont Hills, PA 19004", "city": "Belmont Hills", "state": "PA", "zip": "19004", "price": 549990, "beds": 3, "baths": 3.0, "url": null, "school_district": "Lower Merion", "county_name": "MONTGOMERY", "good_district": true }, "geometry": { "type": "Point", "coordinates": [ -75.237916, 40.027144 ] } },
{ "type": "Feature", "properties": { "id": 28, "address": "41 Conshohocken State Rd, Apt 603, Bala Cynwyd, PA 19004", "city": "Bala Cynwyd", "state": "PA", "zip": "19004", "price": 599000, "beds": 2, "baths": 2.0, "url": null, "school_district": "Lower Merion", "county_name": "MONTGOMERY", "good_district": true }, "geometry": { "type": "Point", "coordinates": [ -75.227664, 40.00416 ] } },
{ "type": "Feature", "properties": { "id": 29, "address": "85 Price St, Bala Cynwyd, PA 19004", "city": "Bala Cynwyd", "state": "PA", "zip": "19004", "price": 499000, "beds": 4, "baths": 2.0, "url": null, "school_district": "Lower Merion", "county_name": "MONTGOMERY", "good_district": true }, "geometry": { "type": "Point", "coordinates": [ -75.235253, 40.02795 ] } },
{ "type": "Feature", "properties": { "id": 30, "address": "50 Belmont Ave, Apt 916, Bala Cynwyd, PA 19004", "city": "Bala Cynwyd", "state": "PA", "zip": "19004", "price": 350000, "beds": 1, "baths": 1.5, "url": null, "school_district": "Lower Merion", "county_name": "MONTGOMERY", "good_district": true }, "geometry": { "type": "Point", "coordinates": [ -75.223472, 40.005857 ] } },
{ "type": "Feature", "properties": { "id": 31, "address": "191 Presidential Blvd, Unit R414, Bala Cynwyd, PA 19004", "city": "Bala Cynwyd", "state": "PA", "zip": "19004", "price": 164900, "beds": 2, "baths": 1.0, "url": null, "school_district": "Lower Merion", "county_name": "MONTGOMERY", "good_district": true }, "geometry": { "type": "Point", "coordinates": [ -75.215839, 40.012154 ] } },
{ "type": "Feature", "properties": { "id": 32, "address": "191 Presidential Blvd, Unit R431, Bala Cynwyd, PA 19004", "city": "Bala Cynwyd", "state": "PA", "zip": "19004", "price": 169900, "beds": 1, "baths": 1.0, "url": null, "school_district": "Lower Merion", "county_name": "MONTGOMERY", "good_district": true }, "geometry": { "type": "Point", "coordinates": [ -75.215839, 40.012154 ] } },
{ "type": "Feature", "properties": { "id": 33, "address": "19 Rock Hill Rd, Apt 1G, Bala Cynwyd, PA 19004", "city": "Bala Cynwyd", "state": "PA", "zip": "19004", "price": 244500, "beds": 2, "baths": 2.0, "url": null, "school_district": "Lower Merion", "county_name": "MONTGOMERY", "good_district": true }, "geometry": { "type": "Point", "coordinates": [ -75.24045, 40.019299 ] } },
{ "type": "Feature", "properties": { "id": 34, "address": "103 N Highland Ave, Bala Cynwyd, PA 19004", "city": "Bala Cynwyd", "state": "PA", "zip": "19004", "price": 991000, "beds": 6, "baths": 3.5, "url": null, "school_district": "Lower Merion", "county_name": "MONTGOMERY", "good_district": true }, "geometry": { "type": "Point", "coordinates": [ -75.235288, 40.003922 ] } },
{ "type": "Feature", "properties": { "id": 35, "address": "190 Presidential Blvd, Unit 513, Bala Cynwyd, PA 19004", "city": "Bala Cynwyd", "state": "PA", "zip": "19004", "price": 550000, "beds": 2, "baths": 2.5, "url": null, "school_district": "Lower Merion", "county_name": "MONTGOMERY", "good_district": true }, "geometry": { "type": "Point", "coordinates": [ -75.214783, 40.011004 ] } },
{ "type": "Feature", "properties": { "id": 36, "address": "36 Clwyd Rd, Bala Cynwyd, PA 19004", "city": "Bala Cynwyd", "state": "PA", "zip": "19004", "price": 975000, "beds": 3, "baths": 3.5, "url": null, "school_district": "Lower Merion", "county_name": "MONTGOMERY", "good_district": true }, "geometry": { "type": "Point", "coordinates": [ -75.224943, 40.005111 ] } },
{ "type": "Feature", "properties": { "id": 37, "address": "147 Jones St, Bala Cynwyd, PA 19004", "city": "Bala Cynwyd", "state": "PA", "zip": "19004", "price": 599000, "beds": 3, "baths": 2.5, "url": null, "school_district": "Lower Merion", "county_name": "MONTGOMERY", "good_district": true }, "geometry": { "type": "Point", "coordinates": [ -75.237893, 40.029172 ] } },
{ "type": "Feature", "properties": { "id": 38, "address": "216 Jefferson St, Bala Cynwyd, PA 19004", "city": "Bala Cynwyd", "state": "PA", "zip": "19004", "price": 325000, "beds": 3, "baths": 1.5, "url": null, "school_district": "Lower Merion", "county_name": "MONTGOMERY", "good_district": true }, "geometry": { "type": "Point", "coordinates": [ -75.238619, 40.027857 ] } },
{ "type": "Feature", "properties": { "id": 39, "address": "11 S Washington Ave, Bala Cynwyd, PA 19004", "city": "Bala Cynwyd", "state": "PA", "zip": "19004", "price": 799999, "beds": 3, "baths": 2.5, "url": null, "school_district": "Lower Merion", "county_name": "MONTGOMERY", "good_district": true }, "geometry": { "type": "Point", "coordinates": [ -75.237499, 40.024979 ] } },
{ "type": "Feature", "properties": { "id": 40, "address": "19 Rock Hill Rd, Apt 3D, Bala Cynwyd, PA 19004", "city": "Bala Cynwyd", "state": "PA", "zip": "19004", "price": 275000, "beds": 2, "baths": 2.0, "url": null, "school_district": "Lower Merion", "county_name": "MONTGOMERY", "good_district": true }, "geometry": { "type": "Point", "coordinates": [ -75.24045, 40.019299 ] } },
{ "type": "Feature", "properties": { "id": 41, "address": "138 Rockland Ave, Bala Cynwyd, PA 19004", "city": "Bala Cynwyd", "state": "PA", "zip": "19004", "price": 228900, "beds": 4, "baths": 2.5, "url": null, "school_district": "Lower Merion", "county_name": "MONTGOMERY", "good_district": true }, "geometry": { "type": "Point", "coordinates": [ -75.236616, 40.026934 ] } },
{ "type": "Feature", "properties": { "id": 42, "address": "16 Radcliff Rd, Bala Cynwyd, PA 19004", "city": "Bala Cynwyd", "state": "PA", "zip": "19004", "price": 1250000, "beds": 6, "baths": 2.5, "url": null, "school_district": "Lower Merion", "county_name": "MONTGOMERY", "good_district": true }, "geometry": { "type": "Point", "coordinates": [ -75.235743, 40.010162 ] } },
{ "type": "Feature", "properties": { "id": 43, "address": "101 Montgomery Ave, Apt B2, Bala Cynwyd, PA 19004", "city": "Bala Cynwyd", "state": "PA", "zip": "19004", "price": 409000, "beds": 2, "baths": 2.5, "url": null, "school_district": "Lower Merion", "county_name": "MONTGOMERY", "good_district": true }, "geometry": { "type": "Point", "coordinates": [ -75.236075, 40.005822 ] } },
{ "type": "Feature", "properties": { "id": 44, "address": "191 Presidential Blvd, Unit R505, Bala Cynwyd, PA 19004", "city": "Bala Cynwyd", "state": "PA", "zip": "19004", "price": 515000, "beds": 2, "baths": 2.0, "url": null, "school_district": "Lower Merion", "county_name": "MONTGOMERY", "good_district": true }, "geometry": { "type": "Point", "coordinates": [ -75.215839, 40.012154 ] } },
{ "type": "Feature", "properties": { "id": 45, "address": "191 Presidential Blvd, Unit 826, Bala Cynwyd, PA 19004", "city": "Bala Cynwyd", "state": "PA", "zip": "19004", "price": 139000, "beds": 1, "baths": 1.0, "url": null, "school_district": "Lower Merion", "county_name": "MONTGOMERY", "good_district": true }, "geometry": { "type": "Point", "coordinates": [ -75.215843, 40.012161 ] } },
{ "type": "Feature", "properties": { "id": 46, "address": "28 W Amherst Rd, Bala Cynwyd, PA 19004", "city": "Bala Cynwyd", "state": "PA", "zip": "19004", "price": 1025000, "beds": 4, "baths": 2.5, "url": null, "school_district": "Lower Merion", "county_name": "MONTGOMERY", "good_district": true }, "geometry": { "type": "Point", "coordinates": [ -75.240477, 40.015306 ] } },
{ "type": "Feature", "properties": { "id": 47, "address": "191 Presidential Blvd, Unit 805, Bala Cynwyd, PA 19004", "city": "Bala Cynwyd", "state": "PA", "zip": "19004", "price": 415000, "beds": 2, "baths": 2.0, "url": null, "school_district": "Lower Merion", "county_name": "MONTGOMERY", "good_district": true }, "geometry": { "type": "Point", "coordinates": [ -75.215843, 40.012161 ] } },
{ "type": "Feature", "properties": { "id": 48, "address": "130 Derwen Rd, Bala Cynwyd, PA 19004", "city": "Bala Cynwyd", "state": "PA", "zip": "19004", "price": 1399000, "beds": 5, "baths": 3.5, "url": null, "school_district": "Lower Merion", "county_name": "MONTGOMERY", "good_district": true }, "geometry": { "type": "Point", "coordinates": [ -75.242078, 40.010453 ] } },
{ "type": "Feature", "properties": { "id": 49, "address": "204 Garnet Ln, Bala Cynwyd, PA 19004", "city": "Bala Cynwyd", "state": "PA", "zip": "19004", "price": 1200000, "beds": 4, "baths": 3.5, "url": null, "school_district": "Lower Merion", "county_name": "MONTGOMERY", "good_district": true }, "geometry": { "type": "Point", "coordinates": [ -75.22931, 40.017754 ] } },
{ "type": "Feature", "properties": { "id": 50, "address": "165 Stoneway Ln, Bala Cynwyd, PA 19004", "city": "Bala Cynwyd", "state": "PA", "zip": "19004", "price": 465000, "beds": 3, "baths": 2.0, "url": null, "school_district": "Lower Merion", "county_name": "MONTGOMERY", "good_district": true }, "geometry": { "type": "Point", "coordinates": [ -75.235307, 39.997993 ] } },
{ "type": "Feature", "properties": { "id": 51, "address": "159 Jennifer Ln, Bala Cynwyd, PA 19004", "city": "Bala Cynwyd", "state": "PA", "zip": "19004", "price": 820000, "beds": 3, "baths": 2.5, "url": null, "school_district": "Lower Merion", "county_name": "MONTGOMERY", "good_district": true }, "geometry": { "type": "Point", "coordinates": [ -75.230057, 40.016927 ] } },
{ "type": "Feature", "properties": { "id": 52, "address": "1044 Lindy Ln, Unit 10-44, Bala Cynwyd, PA 19004", "city": "Bala Cynwyd", "state": "PA", "zip": "19004", "price": 849000, "beds": 3, "baths": 2.0, "url": null, "school_district": "Lower Merion", "county_name": "MONTGOMERY", "good_district": true }, "geometry": { "type": "Point", "coordinates": [ -75.222704, 40.010413 ] } },
{ "type": "Feature", "properties": { "id": 53, "address": "18 W Amherst Rd, Bala Cynwyd, PA 19004", "city": "Bala Cynwyd", "state": "PA", "zip": "19004", "price": 1000000, "beds": 4, "baths": 3.5, "url": null, "school_district": "Lower Merion", "county_name": "MONTGOMERY", "good_district": true }, "geometry": { "type": "Point", "coordinates": [ -75.239653, 40.0155 ] } },
{ "type": "Feature", "properties": { "id": 54, "address": "108 Summit Ln, Bala Cynwyd, PA 19004", "city": "Bala Cynwyd", "state": "PA", "zip": "19004", "price": 1275000, "beds": 4, "baths": 5.5, "url": null, "school_district": "Lower Merion", "county_name": "MONTGOMERY", "good_district": true }, "geometry": { "type": "Point", "coordinates": [ -75.236514, 40.004618 ] } },
{ "type": "Feature", "properties": { "id": 55, "address": "1266 Gulph Creek Dr, Wayne, PA 19087", "city": "Wayne", "state": "PA", "zip": "19087", "price": 2150000, "beds": 9, "baths": 7.0, "url": null, "school_district": "Upper Merion Area", "county_name": "MONTGOMERY", "good_district": false }, "geometry": { "type": "Point", "coordinates": [ -75.34968, 40.057898 ] } },
{ "type": "Feature", "properties": { "id": 56, "address": "105 Privet Ln, Lot 4, Wayne, PA 19087", "city": "Wayne", "state": "PA", "zip": "19087", "price": 2450000, "beds": 6, "baths": 3.5, "url": null, "school_district": "Upper Merion Area", "county_name": "MONTGOMERY", "good_district": false }, "geometry": { "type": "Point", "coordinates": [ -75.342873, 40.057037 ] } },
{ "type": "Feature", "properties": { "id": 57, "address": "356 King Of Prussia Rd, Wayne, PA 19087", "city": "Wayne", "state": "PA", "zip": "19087", "price": 795000, "beds": 4, "baths": 4.0, "url": null, "school_district": "Upper Merion Area", "county_name": "MONTGOMERY", "good_district": false }, "geometry": { "type": "Point", "coordinates": [ -75.384944, 40.07745 ] } },
{ "type": "Feature", "properties": { "id": 58, "address": "780 Hobbs Rd, Wayne, PA 19087", "city": "Wayne", "state": "PA", "zip": "19087", "price": 1999900, "beds": 7, "baths": 6.5, "url": null, "school_district": "Upper Merion Area", "county_name": "MONTGOMERY", "good_district": false }, "geometry": { "type": "Point", "coordinates": [ -75.376125, 40.068808 ] } },
{ "type": "Feature", "properties": { "id": 59, "address": "1260 County Line Rd, Wayne, PA 19087", "city": "Wayne", "state": "PA", "zip": "19087", "price": 5500000, "beds": 4, "baths": 3.5, "url": null, "school_district": "Upper Merion Area", "county_name": "MONTGOMERY", "good_district": false }, "geometry": { "type": "Point", "coordinates": [ -75.352149, 40.057945 ] } },
{ "type": "Feature", "properties": { "id": 60, "address": "1260-2 County Line Rd, Wayne, PA 19087", "city": "Wayne", "state": "PA", "zip": "19087", "price": 5500000, "beds": null, "baths": null, "url": null, "school_district": "Upper Merion Area", "county_name": "MONTGOMERY", "good_district": false }, "geometry": { "type": "Point", "coordinates": [ -75.352249, 40.057995 ] } },
{ "type": "Feature", "properties": { "id": 61, "address": "575 W Valley Rd, Wayne, PA 19087", "city": "Wayne", "state": "PA", "zip": "19087", "price": 850000, "beds": 4, "baths": 2.5, "url": null, "school_district": "Tredyffrin-Easttown", "county_name": "CHESTER", "good_district": false }, "geometry": { "type": "Point", "coordinates": [ -75.416861, 40.060382 ] } },
{ "type": "Feature", "properties": { "id": 62, "address": "32 Main St, Chesterbrook, PA 19087", "city": "Chesterbrook", "state": "PA", "zip": "19087", "price": 570000, "beds": 3, "baths": 3.5, "url": null, "school_district": "Tredyffrin-Easttown", "county_name": "CHESTER", "good_district": false }, "geometry": { "type": "Point", "coordinates": [ -75.473107, 40.077565 ] } },
{ "type": "Feature", "properties": { "id": 63, "address": "1034 Mt Pleasant Ave, Lot 2, Wayne, PA 19087", "city": "Wayne", "state": "PA", "zip": "19087", "price": 825000, "beds": 3, "baths": 2.5, "url": null, "school_district": "Upper Merion Area", "county_name": "MONTGOMERY", "good_district": false }, "geometry": { "type": "Point", "coordinates": [ -75.390045, 40.063354 ] } },
{ "type": "Feature", "properties": { "id": 64, "address": "1034 Mt Pleasant Ave, Lot 1, Wayne, PA 19087", "city": "Wayne", "state": "PA", "zip": "19087", "price": 879000, "beds": 4, "baths": 2.5, "url": null, "school_district": "Upper Merion Area", "county_name": "MONTGOMERY", "good_district": false }, "geometry": { "type": "Point", "coordinates": [ -75.390045, 40.063354 ] } },
{ "type": "Feature", "properties": { "id": 65, "address": "143 Valley Stream Cir, Wayne, PA 19087", "city": "Wayne", "state": "PA", "zip": "19087", "price": 419000, "beds": 3, "baths": 2.0, "url": null, "school_district": "Tredyffrin-Easttown", "county_name": "CHESTER", "good_district": false }, "geometry": { "type": "Point", "coordinates": [ -75.465665, 40.07829 ] } },
{ "type": "Feature", "properties": { "id": 66, "address": "1430 Washington Pl, Chesterbrook, PA 19087", "city": "Chesterbrook", "state": "PA", "zip": "19087", "price": 355000, "beds": 2, "baths": 2.0, "url": null, "school_district": "Tredyffrin-Easttown", "county_name": "CHESTER", "good_district": false }, "geometry": { "type": "Point", "coordinates": [ -75.46732, 40.077948 ] } },
{ "type": "Feature", "properties": { "id": 67, "address": "613 Washington Pl, Unit 13, Chesterbrook, PA 19087", "city": "Chesterbrook", "state": "PA", "zip": "19087", "price": 355000, "beds": 2, "baths": 2.0, "url": null, "school_district": "Tredyffrin-Easttown", "county_name": "CHESTER", "good_district": false }, "geometry": { "type": "Point", "coordinates": [ -75.46701, 40.077797 ] } },
{ "type": "Feature", "properties": { "id": 68, "address": "423 Cannon Ct, Unit 423, Chesterbrook, PA 19087", "city": "Chesterbrook", "state": "PA", "zip": "19087", "price": 524800, "beds": 3, "baths": 2.5, "url": null, "school_district": "Tredyffrin-Easttown", "county_name": "CHESTER", "good_district": false }, "geometry": { "type": "Point", "coordinates": [ -75.460476, 40.074573 ] } },
{ "type": "Feature", "properties": { "id": 69, "address": "26 Rue St, Honore, Wayne, PA 19087", "city": "Wayne", "state": "PA", "zip": "19087", "price": 3395000, "beds": 4, "baths": 5.0, "url": null, "school_district": "Tredyffrin-Easttown", "county_name": "CHESTER", "good_district": false }, "geometry": { "type": "Point", "coordinates": [ -75.399391, 40.061844 ] } },
{ "type": "Feature", "properties": { "id": 70, "address": "421 Drummers Ln, Unit 421, Wayne, PA 19087", "city": "Wayne", "state": "PA", "zip": "19087", "price": 288000, "beds": 2, "baths": 2.0, "url": null, "school_district": "Tredyffrin-Easttown", "county_name": "CHESTER", "good_district": false }, "geometry": { "type": "Point", "coordinates": [ -75.41771, 40.086326 ] } },
{ "type": "Feature", "properties": { "id": 71, "address": "39 Cabot Dr, Chesterbrook, PA 19087", "city": "Chesterbrook", "state": "PA", "zip": "19087", "price": 634500, "beds": 3, "baths": 3.0, "url": null, "school_district": "Tredyffrin-Easttown", "county_name": "CHESTER", "good_district": false }, "geometry": { "type": "Point", "coordinates": [ -75.453776, 40.074818 ] } },
{ "type": "Feature", "properties": { "id": 72, "address": "378 S Warner Rd, Wayne, PA 19087", "city": "Wayne", "state": "PA", "zip": "19087", "price": 1599000, "beds": 5, "baths": 4.5, "url": null, "school_district": "Upper Merion Area", "county_name": "MONTGOMERY", "good_district": false }, "geometry": { "type": "Point", "coordinates": [ -75.395031, 40.072776 ] } },
{ "type": "Feature", "properties": { "id": 73, "address": "542 Upper Weadley Rd, Wayne, PA 19087", "city": "Wayne", "state": "PA", "zip": "19087", "price": 724000, "beds": 4, "baths": 2.5, "url": null, "school_district": "Tredyffrin-Easttown", "county_name": "CHESTER", "good_district": false }, "geometry": { "type": "Point", "coordinates": [ -75.412493, 40.062076 ] } },
{ "type": "Feature", "properties": { "id": 74, "address": "1 Private Way, Wayne, PA 19087", "city": "Wayne", "state": "PA", "zip": "19087", "price": 899900, "beds": 4, "baths": 2.5, "url": null, "school_district": "Tredyffrin-Easttown", "county_name": "CHESTER", "good_district": false }, "geometry": { "type": "Point", "coordinates": [ -75.403638, 40.050997 ] } },
{ "type": "Feature", "properties": { "id": 75, "address": "647 Fernfield Cir, Wayne, PA 19087", "city": "Wayne", "state": "PA", "zip": "19087", "price": 1000000, "beds": 4, "baths": 3.5, "url": null, "school_district": "Tredyffrin-Easttown", "county_name": "CHESTER", "good_district": false }, "geometry": { "type": "Point", "coordinates": [ -75.402107, 40.0622 ] } },
{ "type": "Feature", "properties": { "id": 76, "address": "381 E Swedesford Rd, Wayne, PA 19087", "city": "Wayne", "state": "PA", "zip": "19087", "price": 650000, "beds": 1, "baths": 1.0, "url": null, "school_district": "Tredyffrin-Easttown", "county_name": "CHESTER", "good_district": false }, "geometry": { "type": "Point", "coordinates": [ -75.425086, 40.075509 ] } },
{ "type": "Feature", "properties": { "id": 77, "address": "32 Cabot Ct, Chesterbrook, PA 19087", "city": "Chesterbrook", "state": "PA", "zip": "19087", "price": 615000, "beds": 3, "baths": 3.0, "url": null, "school_district": "Tredyffrin-Easttown", "county_name": "CHESTER", "good_district": false }, "geometry": { "type": "Point", "coordinates": [ -75.453752, 40.07436 ] } },
{ "type": "Feature", "properties": { "id": 78, "address": "203 Church St, Wayne, PA 19087", "city": "Wayne", "state": "PA", "zip": "19087", "price": 948999, "beds": 4, "baths": 3.0, "url": null, "school_district": "Radnor Township", "county_name": "DELAWARE", "good_district": false }, "geometry": { "type": "Point", "coordinates": [ -75.395556, 40.038356 ] } },
{ "type": "Feature", "properties": { "id": 79, "address": "1052 Eagle Rd, Wayne, PA 19087", "city": "Wayne", "state": "PA", "zip": "19087", "price": 1400000, "beds": 5, "baths": 3.5, "url": null, "school_district": "Radnor Township", "county_name": "DELAWARE", "good_district": false }, "geometry": { "type": "Point", "coordinates": [ -75.3803, 40.052444 ] } },
{ "type": "Feature", "properties": { "id": 80, "address": "691 Twin Bridge Dr, Wayne, PA 19087", "city": "Wayne", "state": "PA", "zip": "19087", "price": 1075000, "beds": 4, "baths": 2.5, "url": null, "school_district": "Tredyffrin-Easttown", "county_name": "CHESTER", "good_district": false }, "geometry": { "type": "Point", "coordinates": [ -75.368595, 40.066524 ] } },
{ "type": "Feature", "properties": { "id": 81, "address": "344 Brigade Ct, Unit 344, Chesterbrook, PA 19087", "city": "Chesterbrook", "state": "PA", "zip": "19087", "price": 450000, "beds": 3, "baths": 2.5, "url": null, "school_district": "Tredyffrin-Easttown", "county_name": "CHESTER", "good_district": false }, "geometry": { "type": "Point", "coordinates": [ -75.460476, 40.074573 ] } },
{ "type": "Feature", "properties": { "id": 82, "address": "33 Cabot Ct, Chesterbrook, PA 19087", "city": "Chesterbrook", "state": "PA", "zip": "19087", "price": 619500, "beds": 3, "baths": 3.0, "url": null, "school_district": "Tredyffrin-Easttown", "county_name": "CHESTER", "good_district": false }, "geometry": { "type": "Point", "coordinates": [ -75.453732, 40.074413 ] } },
{ "type": "Feature", "properties": { "id": 83, "address": "402 Old Eagle School Rd, Wayne, PA 19087", "city": "Wayne", "state": "PA", "zip": "19087", "price": 654500, "beds": 3, "baths": 2.0, "url": null, "school_district": "Tredyffrin-Easttown", "county_name": "CHESTER", "good_district": false }, "geometry": { "type": "Point", "coordinates": [ -75.406737, 40.059217 ] } },
{ "type": "Feature", "properties": { "id": 84, "address": "273 Strafford Ave, Wayne, PA 19087", "city": "Wayne", "state": "PA", "zip": "19087", "price": 1495000, "beds": 4, "baths": 3.5, "url": null, "school_district": "Tredyffrin-Easttown", "county_name": "CHESTER", "good_district": false }, "geometry": { "type": "Point", "coordinates": [ -75.400999, 40.048837 ] } },
{ "type": "Feature", "properties": { "id": 85, "address": "3 Windsor Cir, Chesterbrook, PA 19087", "city": "Chesterbrook", "state": "PA", "zip": "19087", "price": 515000, "beds": 2, "baths": 2.5, "url": null, "school_district": "Tredyffrin-Easttown", "county_name": "CHESTER", "good_district": false }, "geometry": { "type": "Point", "coordinates": [ -75.446987, 40.075609 ] } },
{ "type": "Feature", "properties": { "id": 86, "address": "667 Colonel Dewees Rd, Wayne, PA 19087", "city": "Wayne", "state": "PA", "zip": "19087", "price": 1374900, "beds": 4, "baths": 3.0, "url": null, "school_district": "Tredyffrin-Easttown", "county_name": "CHESTER", "good_district": false }, "geometry": { "type": "Point", "coordinates": [ -75.422791, 40.08757 ] } },
{ "type": "Feature", "properties": { "id": 87, "address": "746 Upper Gulph Rd, Wayne, PA 19087", "city": "Wayne", "state": "PA", "zip": "19087", "price": 1250000, "beds": 4, "baths": 4.5, "url": null, "school_district": "Tredyffrin-Easttown", "county_name": "CHESTER", "good_district": false }, "geometry": { "type": "Point", "coordinates": [ -75.397168, 40.058669 ] } },
{ "type": "Feature", "properties": { "id": 88, "address": "117 Hillside Rd, Wayne, PA 19087", "city": "Wayne", "state": "PA", "zip": "19087", "price": 925000, "beds": 3, "baths": 2.5, "url": null, "school_district": "Tredyffrin-Easttown", "county_name": "CHESTER", "good_district": false }, "geometry": { "type": "Point", "coordinates": [ -75.399988, 40.055363 ] } },
{ "type": "Feature", "properties": { "id": 89, "address": "631 Washington Pl, Chesterbrook, PA 19087", "city": "Chesterbrook", "state": "PA", "zip": "19087", "price": 325000, "beds": 2, "baths": 2.0, "url": null, "school_district": "Tredyffrin-Easttown", "county_name": "CHESTER", "good_district": false }, "geometry": { "type": "Point", "coordinates": [ -75.46732, 40.077948 ] } },
{ "type": "Feature", "properties": { "id": 90, "address": "423 Maplewood Ave, Wayne, PA 19087", "city": "Wayne", "state": "PA", "zip": "19087", "price": 1849000, "beds": 4, "baths": 4.5, "url": null, "school_district": "Radnor Township", "county_name": "DELAWARE", "good_district": false }, "geometry": { "type": "Point", "coordinates": [ -75.393306, 40.038509 ] } },
{ "type": "Feature", "properties": { "id": 91, "address": "216 Bloomingdale Ave, Wayne, PA 19087", "city": "Wayne", "state": "PA", "zip": "19087", "price": 1249900, "beds": 7, "baths": 3.0, "url": null, "school_district": "Radnor Township", "county_name": "DELAWARE", "good_district": false }, "geometry": { "type": "Point", "coordinates": [ -75.391121, 40.040863 ] } },
{ "type": "Feature", "properties": { "id": 92, "address": "332 Overhill Rd, Wayne, PA 19087", "city": "Wayne", "state": "PA", "zip": "19087", "price": 999999, "beds": 3, "baths": 2.0, "url": null, "school_district": "Radnor Township", "county_name": "DELAWARE", "good_district": false }, "geometry": { "type": "Point", "coordinates": [ -75.394801, 40.047202 ] } },
{ "type": "Feature", "properties": { "id": 93, "address": "319 Walnut Ave, Wayne, PA 19087", "city": "Wayne", "state": "PA", "zip": "19087", "price": 2974990, "beds": 5, "baths": null, "url": null, "school_district": "Radnor Township", "county_name": "DELAWARE", "good_district": false }, "geometry": { "type": "Point", "coordinates": [ -75.382194, 40.050243 ] } },
{ "type": "Feature", "properties": { "id": 94, "address": "118 W Beechtree Ln, Wayne, PA 19087", "city": "Wayne", "state": "PA", "zip": "19087", "price": 1950000, "beds": 6, "baths": 3.5, "url": null, "school_district": "Radnor Township", "county_name": "DELAWARE", "good_district": false }, "geometry": { "type": "Point", "coordinates": [ -75.390288, 40.047625 ] } },
{ "type": "Feature", "properties": { "id": 95, "address": "260 N Aberdeen Ave, Wayne, PA 19087", "city": "Wayne", "state": "PA", "zip": "19087", "price": 345000, "beds": 2, "baths": 1.0, "url": null, "school_district": "Radnor Township", "county_name": "DELAWARE", "good_district": false }, "geometry": { "type": "Point", "coordinates": [ -75.380859, 40.047361 ] } },
{ "type": "Feature", "properties": { "id": 96, "address": "205 N Aberdeen Ave, Wayne, PA 19087", "city": "Wayne", "state": "PA", "zip": "19087", "price": 525000, "beds": 2, "baths": 1.5, "url": null, "school_district": "Radnor Township", "county_name": "DELAWARE", "good_district": false }, "geometry": { "type": "Point", "coordinates": [ -75.380981, 40.045688 ] } },
{ "type": "Feature", "properties": { "id": 97, "address": "846 Maplewood Rd, Wayne, PA 19087", "city": "Wayne", "state": "PA", "zip": "19087", "price": 2950000, "beds": 6, "baths": 6.0, "url": null, "school_district": "Radnor Township", "county_name": "DELAWARE", "good_district": false }, "geometry": { "type": "Point", "coordinates": [ -75.403251, 40.029608 ] } },
{ "type": "Feature", "properties": { "id": 98, "address": "315 Walnut Ave, Wayne, PA 19087", "city": "Wayne", "state": "PA", "zip": "19087", "price": 1450000, "beds": null, "baths": null, "url": null, "school_district": "Radnor Township", "county_name": "DELAWARE", "good_district": false }, "geometry": { "type": "Point", "coordinates": [ -75.380809, 40.051065 ] } },
{ "type": "Feature", "properties": { "id": 99, "address": "114 Conestoga Rd, Wayne, PA 19087", "city": "Wayne", "state": "PA", "zip": "19087", "price": 599000, "beds": 3, "baths": 2.5, "url": null, "school_district": "Radnor Township", "county_name": "DELAWARE", "good_district": false }, "geometry": { "type": "Point", "coordinates": [ -75.400107, 40.043588 ] } },
{ "type": "Feature", "properties": { "id": 100, "address": "123 Iron Works Way, Wayne, PA 19087", "city": "Wayne", "state": "PA", "zip": "19087", "price": 685000, "beds": 1, "baths": 1.5, "url": null, "school_district": "Radnor Township", "county_name": "DELAWARE", "good_district": false }, "geometry": { "type": "Point", "coordinates": [ -75.37789, 40.044217 ] } },
{ "type": "Feature", "properties": { "id": 101, "address": "230 E Beechtree Ln, Wayne, PA 19087", "city": "Wayne", "state": "PA", "zip": "19087", "price": 1700000, "beds": 5, "baths": 3.5, "url": null, "school_district": "Radnor Township", "county_name": "DELAWARE", "good_district": false }, "geometry": { "type": "Point", "coordinates": [ -75.383881, 40.050575 ] } },
{ "type": "Feature", "properties": { "id": 102, "address": "309 Conestoga Rd, Wayne, PA 19087", "city": "Wayne", "state": "PA", "zip": "19087", "price": 1149000, "beds": 4, "baths": 2.5, "url": null, "school_district": "Radnor Township", "county_name": "DELAWARE", "good_district": false }, "geometry": { "type": "Point", "coordinates": [ -75.390137, 40.039791 ] } },
{ "type": "Feature", "properties": { "id": 103, "address": "436 Saint Davids Ave, Wayne, PA 19087", "city": "Wayne", "state": "PA", "zip": "19087", "price": 545000, "beds": 3, "baths": 1.0, "url": null, "school_district": "Radnor Township", "county_name": "DELAWARE", "good_district": false }, "geometry": { "type": "Point", "coordinates": [ -75.379228, 40.045318 ] } },
{ "type": "Feature", "properties": { "id": 104, "address": "Walnut Ave, Lot 2, Wayne, PA 19087", "city": "Wayne", "state": "PA", "zip": "19087", "price": 2974990, "beds": 4, "baths": 4.0, "url": null, "school_district": "Radnor Township", "county_name": "DELAWARE", "good_district": false }, "geometry": { "type": "Point", "coordinates": [ -75.38103, 40.051 ] } },
{ "type": "Feature", "properties": { "id": 105, "address": "1152 Pugh Rd, Wayne, PA 19087", "city": "Wayne", "state": "PA", "zip": "19087", "price": 1849000, "beds": 5, "baths": 4.5, "url": null, "school_district": "Upper Merion Area", "county_name": "MONTGOMERY", "good_district": false }, "geometry": { "type": "Point", "coordinates": [ -75.398455, 40.072565 ] } },
{ "type": "Feature", "properties": { "id": 106, "address": "305 Eagle Rd, Wayne, PA 19087", "city": "Wayne", "state": "PA", "zip": "19087", "price": 725000, "beds": 3, "baths": 1.0, "url": null, "school_district": "Radnor Township", "county_name": "DELAWARE", "good_district": false }, "geometry": { "type": "Point", "coordinates": [ -75.395911, 40.047789 ] } },
{ "type": "Feature", "properties": { "id": 107, "address": "7 Farm Rd, Wayne, PA 19087", "city": "Wayne", "state": "PA", "zip": "19087", "price": 1395000, "beds": 4, "baths": 2.5, "url": null, "school_district": "Radnor Township", "county_name": "DELAWARE", "good_district": false }, "geometry": { "type": "Point", "coordinates": [ -75.395256, 40.044785 ] } },
{ "type": "Feature", "properties": { "id": 108, "address": "616 Brookside Ave, Wayne, PA 19087", "city": "Wayne", "state": "PA", "zip": "19087", "price": 2300000, "beds": 5, "baths": 4.5, "url": null, "school_district": "Radnor Township", "county_name": "DELAWARE", "good_district": false }, "geometry": { "type": "Point", "coordinates": [ -75.376334, 40.034448 ] } },
{ "type": "Feature", "properties": { "id": 109, "address": "346 Morris Rd, Wayne, PA 19087", "city": "Wayne", "state": "PA", "zip": "19087", "price": 684900, "beds": 3, "baths": 2.0, "url": null, "school_district": "Radnor Township", "county_name": "DELAWARE", "good_district": false }, "geometry": { "type": "Point", "coordinates": [ -75.40142, 40.042904 ] } },
{ "type": "Feature", "properties": { "id": 110, "address": "312 Windsor Ave, Wayne, PA 19087", "city": "Wayne", "state": "PA", "zip": "19087", "price": 1425000, "beds": 5, "baths": 3.5, "url": null, "school_district": "Radnor Township", "county_name": "DELAWARE", "good_district": false }, "geometry": { "type": "Point", "coordinates": [ -75.394996, 40.045374 ] } },
{ "type": "Feature", "properties": { "id": 111, "address": "264 N Aberdeen Ave, Wayne, PA 19087", "city": "Wayne", "state": "PA", "zip": "19087", "price": 330000, "beds": 2, "baths": 1.0, "url": null, "school_district": "Radnor Township", "county_name": "DELAWARE", "good_district": false }, "geometry": { "type": "Point", "coordinates": [ -75.380739, 40.047432 ] } },
{ "type": "Feature", "properties": { "id": 112, "address": "236 Anthony Wayne Dr, Wayne, PA 19087", "city": "Wayne", "state": "PA", "zip": "19087", "price": 989500, "beds": 6, "baths": 4.5, "url": null, "school_district": "Tredyffrin-Easttown", "county_name": "CHESTER", "good_district": false }, "geometry": { "type": "Point", "coordinates": [ -75.432241, 40.076047 ] } },
{ "type": "Feature", "properties": { "id": 113, "address": "824 Old Eagle School Rd, Wayne, PA 19087", "city": "Wayne", "state": "PA", "zip": "19087", "price": 785000, "beds": 4, "baths": 2.5, "url": null, "school_district": "Tredyffrin-Easttown", "county_name": "CHESTER", "good_district": false }, "geometry": { "type": "Point", "coordinates": [ -75.408188, 40.070487 ] } },
{ "type": "Feature", "properties": { "id": 114, "address": "135 Clover Hill Ln, Wayne, PA 19087", "city": "Wayne", "state": "PA", "zip": "19087", "price": 1275000, "beds": 5, "baths": 3.5, "url": null, "school_district": "Tredyffrin-Easttown", "county_name": "CHESTER", "good_district": false }, "geometry": { "type": "Point", "coordinates": [ -75.396927, 40.057567 ] } },
{ "type": "Feature", "properties": { "id": 115, "address": "419 Drummers Ln, Unit 419, Wayne, PA 19087", "city": "Wayne", "state": "PA", "zip": "19087", "price": 269900, "beds": 1, "baths": 1.0, "url": null, "school_district": "Tredyffrin-Easttown", "county_name": "CHESTER", "good_district": false }, "geometry": { "type": "Point", "coordinates": [ -75.41771, 40.086326 ] } },
{ "type": "Feature", "properties": { "id": 116, "address": "714 Gulph Rd, Wayne, PA 19087", "city": "Wayne", "state": "PA", "zip": "19087", "price": 1075000, "beds": 5, "baths": 3.5, "url": null, "school_district": "Tredyffrin-Easttown", "county_name": "CHESTER", "good_district": false }, "geometry": { "type": "Point", "coordinates": [ -75.422154, 40.091761 ] } },
{ "type": "Feature", "properties": { "id": 117, "address": "290 Drummers Ln, Unit 290, Wayne, PA 19087", "city": "Wayne", "state": "PA", "zip": "19087", "price": 259900, "beds": 1, "baths": 1.0, "url": null, "school_district": "Tredyffrin-Easttown", "county_name": "CHESTER", "good_district": false }, "geometry": { "type": "Point", "coordinates": [ -75.41771, 40.086326 ] } },
{ "type": "Feature", "properties": { "id": 118, "address": "1089 Broadview Rd, Wayne, PA 19087", "city": "Wayne", "state": "PA", "zip": "19087", "price": 989000, "beds": 4, "baths": 2.5, "url": null, "school_district": "Upper Merion Area", "county_name": "MONTGOMERY", "good_district": false }, "geometry": { "type": "Point", "coordinates": [ -75.399002, 40.069898 ] } },
{ "type": "Feature", "properties": { "id": 119, "address": "977 Ivycroft Rd, Wayne, PA 19087", "city": "Wayne", "state": "PA", "zip": "19087", "price": 1299000, "beds": 4, "baths": 2.5, "url": null, "school_district": "Tredyffrin-Easttown", "county_name": "CHESTER", "good_district": false }, "geometry": { "type": "Point", "coordinates": [ -75.394678, 40.061544 ] } },
{ "type": "Feature", "properties": { "id": 120, "address": "77 Spring Rd, Malvern, PA 19355", "city": "Malvern", "state": "PA", "zip": "19355", "price": 1150000, "beds": 4, "baths": 4.0, "url": null, "school_district": "Great Valley", "county_name": "CHESTER", "good_district": false }, "geometry": { "type": "Point", "coordinates": [ -75.526992, 40.038609 ] } },
{ "type": "Feature", "properties": { "id": 121, "address": "Howell Rd, Lot B, Malvern, PA 19355", "city": "Malvern", "state": "PA", "zip": "19355", "price": 2500000, "beds": 4, "baths": 4.0, "url": null, "school_district": "Great Valley", "county_name": "CHESTER", "good_district": false }, "geometry": { "type": "Point", "coordinates": [ -75.5057817, 40.0834498 ] } },
{ "type": "Feature", "properties": { "id": 122, "address": "11 Oak Ln, Malvern, PA 19355", "city": "Malvern", "state": "PA", "zip": "19355", "price": 825000, "beds": 4, "baths": 2.5, "url": null, "school_district": "Great Valley", "county_name": "CHESTER", "good_district": false }, "geometry": { "type": "Point", "coordinates": [ -75.554433, 40.075271 ] } },
{ "type": "Feature", "properties": { "id": 123, "address": "Howell Rd, Lot A, Malvern, PA 19355", "city": "Malvern", "state": "PA", "zip": "19355", "price": 2470000, "beds": 4, "baths": 4.0, "url": null, "school_district": "Great Valley", "county_name": "CHESTER", "good_district": false }, "geometry": { "type": "Point", "coordinates": [ -75.5059451, 40.0834873 ] } },
{ "type": "Feature", "properties": { "id": 124, "address": "Howell Rd, Lot C, Malvern, PA 19355", "city": "Malvern", "state": "PA", "zip": "19355", "price": 2550000, "beds": 4, "baths": 4.0, "url": null, "school_district": "Great Valley", "county_name": "CHESTER", "good_district": false }, "geometry": { "type": "Point", "coordinates": [ -75.5058243, 40.0833904 ] } },
{ "type": "Feature", "properties": { "id": 125, "address": "36 Rabbit Run Rd, Malvern, PA 19355", "city": "Malvern", "state": "PA", "zip": "19355", "price": 1990000, "beds": 3, "baths": 3.5, "url": null, "school_district": "Great Valley", "county_name": "CHESTER", "good_district": false }, "geometry": { "type": "Point", "coordinates": [ -75.465049, 40.004969 ] } },
{ "type": "Feature", "properties": { "id": 126, "address": "88 Sagewood Dr, Unit 186, Malvern, PA 19355", "city": "Malvern", "state": "PA", "zip": "19355", "price": 669000, "beds": 3, "baths": 2.5, "url": null, "school_district": "Great Valley", "county_name": "CHESTER", "good_district": false }, "geometry": { "type": "Point", "coordinates": [ -75.609184, 40.058308 ] } },
{ "type": "Feature", "properties": { "id": 127, "address": "769 S Warren Ave, Malvern, PA 19355", "city": "Malvern", "state": "PA", "zip": "19355", "price": 1875000, "beds": 5, "baths": 4.5, "url": null, "school_district": "Great Valley", "county_name": "CHESTER", "good_district": false }, "geometry": { "type": "Point", "coordinates": [ -75.48857, 40.000017 ] } },
{ "type": "Feature", "properties": { "id": 128, "address": "405 Gladstone Ct, Malvern, PA 19355", "city": "Malvern", "state": "PA", "zip": "19355", "price": 799900, "beds": 4, "baths": 3.5, "url": null, "school_district": "Great Valley", "county_name": "CHESTER", "good_district": false }, "geometry": { "type": "Point", "coordinates": [ -75.529239, 40.067955 ] } },
{ "type": "Feature", "properties": { "id": 129, "address": "Laurel Cir, Lot 1, Malvern, PA 19355", "city": "Malvern", "state": "PA", "zip": "19355", "price": 2659927, "beds": 4, "baths": 3.5, "url": null, "school_district": "Great Valley", "county_name": "CHESTER", "good_district": false }, "geometry": { "type": "Point", "coordinates": [ -75.5016123, 40.0155568 ] } },
{ "type": "Feature", "properties": { "id": 130, "address": "116 Spring Rd, Malvern, PA 19355", "city": "Malvern", "state": "PA", "zip": "19355", "price": 525000, "beds": 4, "baths": 1.5, "url": null, "school_district": "Great Valley", "county_name": "CHESTER", "good_district": false }, "geometry": { "type": "Point", "coordinates": [ -75.530944, 40.038589 ] } },
{ "type": "Feature", "properties": { "id": 131, "address": "2085 Yellow Springs Rd, Malvern, PA 19355", "city": "Malvern", "state": "PA", "zip": "19355", "price": 799000, "beds": 3, "baths": 2.0, "url": null, "school_district": "Tredyffrin-Easttown", "county_name": "CHESTER", "good_district": false }, "geometry": { "type": "Point", "coordinates": [ -75.506671, 40.074735 ] } },
{ "type": "Feature", "properties": { "id": 132, "address": "100 Lotus Ln, Malvern, PA 19355", "city": "Malvern", "state": "PA", "zip": "19355", "price": 1035000, "beds": 4, "baths": 4.5, "url": null, "school_district": "Great Valley", "county_name": "CHESTER", "good_district": false }, "geometry": { "type": "Point", "coordinates": [ -75.526995, 40.077321 ] } },
{ "type": "Feature", "properties": { "id": 133, "address": "17 Hickory Ln, Malvern, PA 19355", "city": "Malvern", "state": "PA", "zip": "19355", "price": 1949900, "beds": 5, "baths": 3.5, "url": null, "school_district": "Great Valley", "county_name": "CHESTER", "good_district": false }, "geometry": { "type": "Point", "coordinates": [ -75.539088, 40.028196 ] } },
{ "type": "Feature", "properties": { "id": 134, "address": "707 Walton Beck Way, Malvern, PA 19355", "city": "Malvern", "state": "PA", "zip": "19355", "price": 805000, "beds": 3, "baths": 2.5, "url": null, "school_district": "Great Valley", "county_name": "CHESTER", "good_district": false }, "geometry": { "type": "Point", "coordinates": [ -75.542636, 40.0565937 ] } },
{ "type": "Feature", "properties": { "id": 135, "address": "509 Anfield Rd, Unit HOMESITE202, Malvern, PA 19355", "city": "Malvern", "state": "PA", "zip": "19355", "price": 649000, "beds": 3, "baths": 2.5, "url": null, "school_district": "Great Valley", "county_name": "CHESTER", "good_district": false }, "geometry": { "type": "Point", "coordinates": [ -75.546249, 40.054707 ] } },
{ "type": "Feature", "properties": { "id": 136, "address": "602 Kemlyn Rd, Malvern, PA 19355", "city": "Malvern", "state": "PA", "zip": "19355", "price": 680000, "beds": 3, "baths": 2.5, "url": null, "school_district": "Great Valley", "county_name": "CHESTER", "good_district": false }, "geometry": { "type": "Point", "coordinates": [ -75.542636, 40.0565937 ] } },
{ "type": "Feature", "properties": { "id": 137, "address": "2300 Old Sentinel Trl, Malvern, PA 19355", "city": "Malvern", "state": "PA", "zip": "19355", "price": 2890000, "beds": 5, "baths": 5.5, "url": null, "school_district": "Tredyffrin-Easttown", "county_name": "CHESTER", "good_district": false }, "geometry": { "type": "Point", "coordinates": [ -75.520189, 40.075918 ] } },
{ "type": "Feature", "properties": { "id": 138, "address": "704 Walton Beck Way, Malvern, PA 19355", "city": "Malvern", "state": "PA", "zip": "19355", "price": 780000, "beds": 3, "baths": 2.5, "url": null, "school_district": "Great Valley", "county_name": "CHESTER", "good_district": false }, "geometry": { "type": "Point", "coordinates": [ -75.542636, 40.0565937 ] } },
{ "type": "Feature", "properties": { "id": 139, "address": "703 Walton Beck Way, Malvern, PA 19355", "city": "Malvern", "state": "PA", "zip": "19355", "price": 755000, "beds": 3, "baths": 2.5, "url": null, "school_district": "Great Valley", "county_name": "CHESTER", "good_district": false }, "geometry": { "type": "Point", "coordinates": [ -75.542636, 40.0565937 ] } },
{ "type": "Feature", "properties": { "id": 140, "address": "497 Lancaster Ave, Malvern, PA 19355", "city": "Malvern", "state": "PA", "zip": "19355", "price": 695000, "beds": 4, "baths": 2.5, "url": null, "school_district": "Great Valley", "county_name": "CHESTER", "good_district": false }, "geometry": { "type": "Point", "coordinates": [ -75.565192, 40.03673 ] } },
{ "type": "Feature", "properties": { "id": 141, "address": "8 Alroy Rd, Unit HOMESITE109, Malvern, PA 19355", "city": "Malvern", "state": "PA", "zip": "19355", "price": 775723, "beds": 3, "baths": 3.0, "url": null, "school_district": "Great Valley", "county_name": "CHESTER", "good_district": false }, "geometry": { "type": "Point", "coordinates": [ -75.541702, 40.056828 ] } },
{ "type": "Feature", "properties": { "id": 142, "address": "302 Old Kingfisher Ln, Malvern, PA 19355", "city": "Malvern", "state": "PA", "zip": "19355", "price": 2145000, "beds": 5, "baths": 4.5, "url": null, "school_district": "Great Valley", "county_name": "CHESTER", "good_district": false }, "geometry": { "type": "Point", "coordinates": [ -75.529427, 40.023563 ] } },
{ "type": "Feature", "properties": { "id": 143, "address": "336 Conestoga Rd, Malvern, PA 19355", "city": "Malvern", "state": "PA", "zip": "19355", "price": 154900, "beds": 3, "baths": 2.5, "url": null, "school_district": "Great Valley", "county_name": "CHESTER", "good_district": false }, "geometry": { "type": "Point", "coordinates": [ -75.570071, 40.053853 ] } },
{ "type": "Feature", "properties": { "id": 144, "address": "37 Sagewood Dr, Unit 14, Malvern, PA 19355", "city": "Malvern", "state": "PA", "zip": "19355", "price": 665000, "beds": 3, "baths": 2.5, "url": null, "school_district": "Great Valley", "county_name": "CHESTER", "good_district": false }, "geometry": { "type": "Point", "coordinates": [ -75.607422, 40.057724 ] } },
{ "type": "Feature", "properties": { "id": 145, "address": "702 Walton Beck Way, Malvern, PA 19355", "city": "Malvern", "state": "PA", "zip": "19355", "price": 823000, "beds": 3, "baths": 2.5, "url": null, "school_district": "Great Valley", "county_name": "CHESTER", "good_district": false }, "geometry": { "type": "Point", "coordinates": [ -75.542636, 40.0565937 ] } },
{ "type": "Feature", "properties": { "id": 146, "address": "509 Anfield Rd, Malvern, PA 19355", "city": "Malvern", "state": "PA", "zip": "19355", "price": 649000, "beds": 3, "baths": 2.5, "url": null, "school_district": "Great Valley", "county_name": "CHESTER", "good_district": false }, "geometry": { "type": "Point", "coordinates": [ -75.542636, 40.0565937 ] } },
{ "type": "Feature", "properties": { "id": 147, "address": "126 Cricket Dr, Malvern, PA 19355", "city": "Malvern", "state": "PA", "zip": "19355", "price": 530000, "beds": 3, "baths": 2.5, "url": null, "school_district": "Great Valley", "county_name": "CHESTER", "good_district": false }, "geometry": { "type": "Point", "coordinates": [ -75.576352, 40.03793 ] } },
{ "type": "Feature", "properties": { "id": 148, "address": "602 Holywell Dr, Malvern, PA 19355", "city": "Malvern", "state": "PA", "zip": "19355", "price": 629990, "beds": 3, "baths": 3.0, "url": null, "school_district": "Great Valley", "county_name": "CHESTER", "good_district": false }, "geometry": { "type": "Point", "coordinates": [ -75.5269, 40.064181 ] } },
{ "type": "Feature", "properties": { "id": 149, "address": "152 Mulberry Dr, Malvern, PA 19355", "city": "Malvern", "state": "PA", "zip": "19355", "price": 537000, "beds": 3, "baths": 2.5, "url": null, "school_district": "Great Valley", "county_name": "CHESTER", "good_district": false }, "geometry": { "type": "Point", "coordinates": [ -75.576321, 40.036948 ] } },
{ "type": "Feature", "properties": { "id": 150, "address": "300 Blue Welsh St, Malvern, PA 19355", "city": "Malvern", "state": "PA", "zip": "19355", "price": 619900, "beds": 3, "baths": 2.5, "url": null, "school_district": "Great Valley", "county_name": "CHESTER", "good_district": false }, "geometry": { "type": "Point", "coordinates": [ -75.527641, 40.064963 ] } },
{ "type": "Feature", "properties": { "id": 151, "address": "706 Walton Beck Way, Malvern, PA 19355", "city": "Malvern", "state": "PA", "zip": "19355", "price": 799000, "beds": 3, "baths": 2.5, "url": null, "school_district": "Great Valley", "county_name": "CHESTER", "good_district": false }, "geometry": { "type": "Point", "coordinates": [ -75.542636, 40.0565937 ] } },
{ "type": "Feature", "properties": { "id": 152, "address": "485 Major John Way, Malvern, PA 19355", "city": "Malvern", "state": "PA", "zip": "19355", "price": 809000, "beds": 3, "baths": 2.5, "url": null, "school_district": "Great Valley", "county_name": "CHESTER", "good_district": false }, "geometry": { "type": "Point", "coordinates": [ -75.528483, 40.076956 ] } },
{ "type": "Feature", "properties": { "id": 153, "address": "1105 Green Lane Rd, Malvern, PA 19355", "city": "Malvern", "state": "PA", "zip": "19355", "price": 2195000, "beds": 3, "baths": 2.0, "url": null, "school_district": "Great Valley", "county_name": "CHESTER", "good_district": false }, "geometry": { "type": "Point", "coordinates": [ -75.589801, 40.072011 ] } },
{ "type": "Feature", "properties": { "id": 154, "address": "13 Meadow View Ln, Malvern, PA 19355", "city": "Malvern", "state": "PA", "zip": "19355", "price": 849900, "beds": 3, "baths": 3.5, "url": null, "school_district": "Great Valley", "county_name": "CHESTER", "good_district": false }, "geometry": { "type": "Point", "coordinates": [ -75.531687, 40.007856 ] } },
{ "type": "Feature", "properties": { "id": 155, "address": "506 Cliff Ln, Malvern, PA 19355", "city": "Malvern", "state": "PA", "zip": "19355", "price": 799900, "beds": 5, "baths": 4.5, "url": null, "school_district": "Great Valley", "county_name": "CHESTER", "good_district": false }, "geometry": { "type": "Point", "coordinates": [ -75.528204, 40.067842 ] } },
{ "type": "Feature", "properties": { "id": 156, "address": "25 New Whitehorse Way, Malvern, PA 19355", "city": "Malvern", "state": "PA", "zip": "19355", "price": 2770000, "beds": 5, "baths": 5.0, "url": null, "school_district": "Great Valley", "county_name": "CHESTER", "good_district": false }, "geometry": { "type": "Point", "coordinates": [ -75.515651, 40.092585 ] } },
{ "type": "Feature", "properties": { "id": 157, "address": "63 Line Rd, Malvern, PA 19355", "city": "Malvern", "state": "PA", "zip": "19355", "price": 1195000, "beds": 4, "baths": 3.5, "url": null, "school_district": "Great Valley", "county_name": "CHESTER", "good_district": false }, "geometry": { "type": "Point", "coordinates": [ -75.537144, 40.017704 ] } },
{ "type": "Feature", "properties": { "id": 158, "address": "127 Alroy Rd, Malvern, PA 19355", "city": "Malvern", "state": "PA", "zip": "19355", "price": 1125000, "beds": 4, "baths": 3.5, "url": null, "school_district": "Great Valley", "county_name": "CHESTER", "good_district": false }, "geometry": { "type": "Point", "coordinates": [ -75.547523, 40.053638 ] } },
{ "type": "Feature", "properties": { "id": 159, "address": "1771 Indian Run Rd, Malvern, PA 19355", "city": "Malvern", "state": "PA", "zip": "19355", "price": 1875000, "beds": 4, "baths": 5.5, "url": null, "school_district": "Tredyffrin-Easttown", "county_name": "CHESTER", "good_district": false }, "geometry": { "type": "Point", "coordinates": [ -75.511668, 40.07042 ] } },
{ "type": "Feature", "properties": { "id": 160, "address": "745 Quarry Rd, Malvern, PA 19355", "city": "Malvern", "state": "PA", "zip": "19355", "price": 599990, "beds": 3, "baths": 2.5, "url": null, "school_district": "Great Valley", "county_name": "CHESTER", "good_district": false }, "geometry": { "type": "Point", "coordinates": [ -75.52781, 40.065173 ] } },
{ "type": "Feature", "properties": { "id": 161, "address": "1660 Hidden Way, Malvern, PA 19355", "city": "Malvern", "state": "PA", "zip": "19355", "price": 2999995, "beds": 5, "baths": 5.0, "url": null, "school_district": "Tredyffrin-Easttown", "county_name": "CHESTER", "good_district": false }, "geometry": { "type": "Point", "coordinates": [ -75.482954, 40.060607 ] } },
{ "type": "Feature", "properties": { "id": 162, "address": "106 Regents Ct, Malvern, PA 19355", "city": "Malvern", "state": "PA", "zip": "19355", "price": 549000, "beds": 3, "baths": 2.5, "url": null, "school_district": "Great Valley", "county_name": "CHESTER", "good_district": false }, "geometry": { "type": "Point", "coordinates": [ -75.569024, 40.066195 ] } },
{ "type": "Feature", "properties": { "id": 163, "address": "308 Blue Welsh St, Malvern, PA 19355", "city": "Malvern", "state": "PA", "zip": "19355", "price": 620000, "beds": 4, "baths": 3.5, "url": null, "school_district": "Great Valley", "county_name": "CHESTER", "good_district": false }, "geometry": { "type": "Point", "coordinates": [ -75.527559, 40.064749 ] } },
{ "type": "Feature", "properties": { "id": 164, "address": "612 Quarry Point Rd, Malvern, PA 19355", "city": "Malvern", "state": "PA", "zip": "19355", "price": 879990, "beds": 4, "baths": 3.5, "url": null, "school_district": "Great Valley", "county_name": "CHESTER", "good_district": false }, "geometry": { "type": "Point", "coordinates": [ -75.525988, 40.063286 ] } },
{ "type": "Feature", "properties": { "id": 165, "address": "22 Birch Rd, Malvern, PA 19355", "city": "Malvern", "state": "PA", "zip": "19355", "price": 739000, "beds": 4, "baths": 2.5, "url": null, "school_district": "Great Valley", "county_name": "CHESTER", "good_district": false }, "geometry": { "type": "Point", "coordinates": [ -75.544508, 40.044392 ] } },
{ "type": "Feature", "properties": { "id": 166, "address": "371 Applebrook Dr, Malvern, PA 19355", "city": "Malvern", "state": "PA", "zip": "19355", "price": 1375000, "beds": 3, "baths": 2.5, "url": null, "school_district": "West Chester Area", "county_name": "CHESTER", "good_district": false }, "geometry": { "type": "Point", "coordinates": [ -75.529372, 40.001571 ] } },
{ "type": "Feature", "properties": { "id": 167, "address": "22 W Broad St, Malvern, PA 19355", "city": "Malvern", "state": "PA", "zip": "19355", "price": 475500, "beds": 2, "baths": 2.0, "url": null, "school_district": "Great Valley", "county_name": "CHESTER", "good_district": false }, "geometry": { "type": "Point", "coordinates": [ -75.514549, 40.037029 ] } },
{ "type": "Feature", "properties": { "id": 168, "address": "2110 Union Hill Rd, Malvern, PA 19355", "city": "Malvern", "state": "PA", "zip": "19355", "price": 2299900, "beds": 4, "baths": 3.5, "url": null, "school_district": "Great Valley", "county_name": "CHESTER", "good_district": false }, "geometry": { "type": "Point", "coordinates": [ -75.534472, 40.089037 ] } },
{ "type": "Feature", "properties": { "id": 169, "address": "614 Kemlyn Rd, Malvern, PA 19355", "city": "Malvern", "state": "PA", "zip": "19355", "price": 650000, "beds": 3, "baths": 2.5, "url": null, "school_district": "Great Valley", "county_name": "CHESTER", "good_district": false }, "geometry": { "type": "Point", "coordinates": [ -75.542636, 40.0565937 ] } },
{ "type": "Feature", "properties": { "id": 170, "address": "610 Kemlyn Rd, Malvern, PA 19355", "city": "Malvern", "state": "PA", "zip": "19355", "price": 715000, "beds": 3, "baths": 2.5, "url": null, "school_district": "Great Valley", "county_name": "CHESTER", "good_district": false }, "geometry": { "type": "Point", "coordinates": [ -75.542636, 40.0565937 ] } },
{ "type": "Feature", "properties": { "id": 171, "address": "175 Alroy Rd, Malvern, PA 19355", "city": "Malvern", "state": "PA", "zip": "19355", "price": 943000, "beds": 4, "baths": 3.5, "url": null, "school_district": "Great Valley", "county_name": "CHESTER", "good_district": false }, "geometry": { "type": "Point", "coordinates": [ -75.542636, 40.0565937 ] } },
{ "type": "Feature", "properties": { "id": 172, "address": "118 Josephs Way, Unit 16, Malvern, PA 19355", "city": "Malvern", "state": "PA", "zip": "19355", "price": 435000, "beds": 3, "baths": 2.5, "url": null, "school_district": "Great Valley", "county_name": "CHESTER", "good_district": false }, "geometry": { "type": "Point", "coordinates": [ -75.546677, 40.041183 ] } },
{ "type": "Feature", "properties": { "id": 173, "address": "173 Alroy Rd, Malvern, PA 19355", "city": "Malvern", "state": "PA", "zip": "19355", "price": 921000, "beds": 4, "baths": 2.5, "url": null, "school_district": "Great Valley", "county_name": "CHESTER", "good_district": false }, "geometry": { "type": "Point", "coordinates": [ -75.542636, 40.0565937 ] } },
{ "type": "Feature", "properties": { "id": 174, "address": "106 Brandywine Rd, Malvern, PA 19355", "city": "Malvern", "state": "PA", "zip": "19355", "price": 498000, "beds": 3, "baths": 2.5, "url": null, "school_district": "Great Valley", "county_name": "CHESTER", "good_district": false }, "geometry": { "type": "Point", "coordinates": [ -75.567186, 40.068948 ] } },
{ "type": "Feature", "properties": { "id": 175, "address": "1 Joanna Dr, Malvern, PA 19355", "city": "Malvern", "state": "PA", "zip": "19355", "price": 1275000, "beds": 4, "baths": 2.5, "url": null, "school_district": "Great Valley", "county_name": "CHESTER", "good_district": false }, "geometry": { "type": "Point", "coordinates": [ -75.528431, 40.013678 ] } },
{ "type": "Feature", "properties": { "id": 176, "address": "408 Quarry Point Rd, Malvern, PA 19355", "city": "Malvern", "state": "PA", "zip": "19355", "price": 869900, "beds": 4, "baths": 3.0, "url": null, "school_district": "Great Valley", "county_name": "CHESTER", "good_district": false }, "geometry": { "type": "Point", "coordinates": [ -75.529285, 40.063249 ] } },
{ "type": "Feature", "properties": { "id": 177, "address": "634 Highland Ave, Malvern, PA 19355", "city": "Malvern", "state": "PA", "zip": "19355", "price": 1785000, "beds": 4, "baths": 4.5, "url": null, "school_district": "Great Valley", "county_name": "CHESTER", "good_district": false }, "geometry": { "type": "Point", "coordinates": [ -75.525955, 40.03048 ] } },
{ "type": "Feature", "properties": { "id": 178, "address": "2081 Bodine Rd, Malvern, PA 19355", "city": "Malvern", "state": "PA", "zip": "19355", "price": 3195000, "beds": 5, "baths": 5.0, "url": null, "school_district": "Great Valley", "county_name": "CHESTER", "good_district": false }, "geometry": { "type": "Point", "coordinates": [ -75.598162, 40.060958 ] } },
{ "type": "Feature", "properties": { "id": 179, "address": "1052 W Valley Hill Rd, Malvern, PA 19355", "city": "Malvern", "state": "PA", "zip": "19355", "price": 649900, "beds": 3, "baths": 2.0, "url": null, "school_district": "Great Valley", "county_name": "CHESTER", "good_district": false }, "geometry": { "type": "Point", "coordinates": [ -75.609685, 40.052214 ] } },
{ "type": "Feature", "properties": { "id": 180, "address": "320 E Broad St, Malvern, PA 19355", "city": "Malvern", "state": "PA", "zip": "19355", "price": 599000, "beds": 4, "baths": 2.5, "url": null, "school_district": "Great Valley", "county_name": "CHESTER", "good_district": false }, "geometry": { "type": "Point", "coordinates": [ -75.511188, 40.038133 ] } },
{ "type": "Feature", "properties": { "id": 181, "address": "18 Beatty Ln, Malvern, PA 19355", "city": "Malvern", "state": "PA", "zip": "19355", "price": 3300000, "beds": 6, "baths": 4.5, "url": null, "school_district": "Great Valley", "county_name": "CHESTER", "good_district": false }, "geometry": { "type": "Point", "coordinates": [ -75.59689, 40.06037 ] } },
{ "type": "Feature", "properties": { "id": 182, "address": "22 Lloyd Ave, Malvern, PA 19355", "city": "Malvern", "state": "PA", "zip": "19355", "price": 799900, "beds": null, "baths": null, "url": null, "school_district": "Great Valley", "county_name": "CHESTER", "good_district": false }, "geometry": { "type": "Point", "coordinates": [ -75.498459, 40.038406 ] } },
{ "type": "Feature", "properties": { "id": 183, "address": "1515 N Valley Rd, Malvern, PA 19355", "city": "Malvern", "state": "PA", "zip": "19355", "price": 899500, "beds": 3, "baths": 1.5, "url": null, "school_district": "Tredyffrin-Easttown", "county_name": "CHESTER", "good_district": false }, "geometry": { "type": "Point", "coordinates": [ -75.491456, 40.069583 ] } },
{ "type": "Feature", "properties": { "id": 184, "address": "155 Lotus Ln, Malvern, PA 19355", "city": "Malvern", "state": "PA", "zip": "19355", "price": 890000, "beds": 4, "baths": 3.5, "url": null, "school_district": "Great Valley", "county_name": "CHESTER", "good_district": false }, "geometry": { "type": "Point", "coordinates": [ -75.525578, 40.077743 ] } },
{ "type": "Feature", "properties": { "id": 185, "address": "2062 General Alexander Dr, Malvern, PA 19355", "city": "Malvern", "state": "PA", "zip": "19355", "price": 2099000, "beds": 5, "baths": 4.5, "url": null, "school_district": "Tredyffrin-Easttown", "county_name": "CHESTER", "good_district": false }, "geometry": { "type": "Point", "coordinates": [ -75.472166, 40.08489 ] } },
{ "type": "Feature", "properties": { "id": 186, "address": "100 Grays Ln, Apt 602, Haverford, PA 19041", "city": "Haverford", "state": "PA", "zip": "19041", "price": 975000, "beds": 3, "baths": 3.5, "url": null, "school_district": "Lower Merion", "county_name": "MONTGOMERY", "good_district": true }, "geometry": { "type": "Point", "coordinates": [ -75.300299, 40.016229 ] } },
{ "type": "Feature", "properties": { "id": 187, "address": "644 Robinson Ln, Haverford, PA 19041", "city": "Haverford", "state": "PA", "zip": "19041", "price": 1595000, "beds": 4, "baths": 4.5, "url": null, "school_district": "Lower Merion", "county_name": "MONTGOMERY", "good_district": true }, "geometry": { "type": "Point", "coordinates": [ -75.287251, 40.024995 ] } },
{ "type": "Feature", "properties": { "id": 188, "address": "432 W Montgomery Ave, Unit 402, Haverford, PA 19041", "city": "Haverford", "state": "PA", "zip": "19041", "price": 379000, "beds": 2, "baths": 2.0, "url": null, "school_district": "Lower Merion", "county_name": "MONTGOMERY", "good_district": true }, "geometry": { "type": "Point", "coordinates": [ -75.302075, 40.016463 ] } },
{ "type": "Feature", "properties": { "id": 189, "address": "264 W Montgomery Ave, Unit 304, Haverford, PA 19041", "city": "Haverford", "state": "PA", "zip": "19041", "price": 485000, "beds": 2, "baths": 2.0, "url": null, "school_district": "Lower Merion", "county_name": "MONTGOMERY", "good_district": true }, "geometry": { "type": "Point", "coordinates": [ -75.298553, 40.013606 ] } },
{ "type": "Feature", "properties": { "id": 190, "address": "30 Buck Ln, Haverford, PA 19041", "city": "Haverford", "state": "PA", "zip": "19041", "price": 1455000, "beds": 4, "baths": 2.5, "url": null, "school_district": "Lower Merion", "county_name": "MONTGOMERY", "good_district": true }, "geometry": { "type": "Point", "coordinates": [ -75.307537, 40.014978 ] } },
{ "type": "Feature", "properties": { "id": 191, "address": "2 Booth Ln, Apt 6, Haverford, PA 19041", "city": "Haverford", "state": "PA", "zip": "19041", "price": 725000, "beds": 2, "baths": 3.5, "url": null, "school_district": "Lower Merion", "county_name": "MONTGOMERY", "good_district": true }, "geometry": { "type": "Point", "coordinates": [ -75.304939, 40.015039 ] } },
{ "type": "Feature", "properties": { "id": 192, "address": "104 Woodside Rd, Apt A102, Haverford, PA 19041", "city": "Haverford", "state": "PA", "zip": "19041", "price": 399900, "beds": 2, "baths": 2.5, "url": null, "school_district": "Lower Merion", "county_name": "MONTGOMERY", "good_district": true }, "geometry": { "type": "Point", "coordinates": [ -75.294655, 40.011983 ] } },
{ "type": "Feature", "properties": { "id": 193, "address": "220 Old State Rd, Berwyn, PA 19312", "city": "Berwyn", "state": "PA", "zip": "19312", "price": 3500000, "beds": 3, "baths": 1.5, "url": null, "school_district": "Tredyffrin-Easttown", "county_name": "CHESTER", "good_district": false }, "geometry": { "type": "Point", "coordinates": [ -75.439445, 40.066353 ] } },
{ "type": "Feature", "properties": { "id": 194, "address": "317 Greene Rd, Berwyn, PA 19312", "city": "Berwyn", "state": "PA", "zip": "19312", "price": 1819990, "beds": 5, "baths": 4.5, "url": null, "school_district": "Tredyffrin-Easttown", "county_name": "CHESTER", "good_district": false }, "geometry": { "type": "Point", "coordinates": [ -75.460762, 40.050869 ] } },
{ "type": "Feature", "properties": { "id": 195, "address": "2 Martins Ln, Berwyn, PA 19312", "city": "Berwyn", "state": "PA", "zip": "19312", "price": 1689990, "beds": 4, "baths": 3.5, "url": null, "school_district": "Tredyffrin-Easttown", "county_name": "CHESTER", "good_district": false }, "geometry": { "type": "Point", "coordinates": [ -75.457536, 40.046719 ] } },
{ "type": "Feature", "properties": { "id": 196, "address": "1304 Sugartown Rd, Berwyn, PA 19312", "city": "Berwyn", "state": "PA", "zip": "19312", "price": 915000, "beds": 4, "baths": 4.0, "url": null, "school_district": "Tredyffrin-Easttown", "county_name": "CHESTER", "good_district": false }, "geometry": { "type": "Point", "coordinates": [ -75.45391, 40.032876 ] } },
{ "type": "Feature", "properties": { "id": 197, "address": "1179 Beaumont Rd, Berwyn, PA 19312", "city": "Berwyn", "state": "PA", "zip": "19312", "price": 2100000, "beds": 5, "baths": 3.5, "url": null, "school_district": "Tredyffrin-Easttown", "county_name": "CHESTER", "good_district": false }, "geometry": { "type": "Point", "coordinates": [ -75.435576, 40.017131 ] } },
{ "type": "Feature", "properties": { "id": 198, "address": "123 Daylesford Blvd, Berwyn, PA 19312", "city": "Berwyn", "state": "PA", "zip": "19312", "price": 749000, "beds": 3, "baths": 3.5, "url": null, "school_district": "Tredyffrin-Easttown", "county_name": "CHESTER", "good_district": false }, "geometry": { "type": "Point", "coordinates": [ -75.47358, 40.058384 ] } },
{ "type": "Feature", "properties": { "id": 199, "address": "1427 Sugartown Rd, Berwyn, PA 19312", "city": "Berwyn", "state": "PA", "zip": "19312", "price": 2300000, "beds": 5, "baths": 4.5, "url": null, "school_district": "Tredyffrin-Easttown", "county_name": "CHESTER", "good_district": false }, "geometry": { "type": "Point", "coordinates": [ -75.461153, 40.032965 ] } },
{ "type": "Feature", "properties": { "id": 200, "address": "663 Augusta Ct, Berwyn, PA 19312", "city": "Berwyn", "state": "PA", "zip": "19312", "price": 1420000, "beds": 3, "baths": 2.5, "url": null, "school_district": "Tredyffrin-Easttown", "county_name": "CHESTER", "good_district": false }, "geometry": { "type": "Point", "coordinates": [ -75.45737, 40.021901 ] } },
{ "type": "Feature", "properties": { "id": 201, "address": "671 Leopard Rd, Berwyn, PA 19312", "city": "Berwyn", "state": "PA", "zip": "19312", "price": 699000, "beds": 7, "baths": 3.0, "url": null, "school_district": "Tredyffrin-Easttown", "county_name": "CHESTER", "good_district": false }, "geometry": { "type": "Point", "coordinates": [ -75.451336, 40.021206 ] } },
{ "type": "Feature", "properties": { "id": 202, "address": "1075 S Leopard Rd, Berwyn, PA 19312", "city": "Berwyn", "state": "PA", "zip": "19312", "price": 6250000, "beds": 7, "baths": 9.0, "url": null, "school_district": "Tredyffrin-Easttown", "county_name": "CHESTER", "good_district": false }, "geometry": { "type": "Point", "coordinates": [ -75.437771, 40.026374 ] } },
{ "type": "Feature", "properties": { "id": 203, "address": "2577 Wayland Rd, Berwyn, PA 19312", "city": "Berwyn", "state": "PA", "zip": "19312", "price": 2395000, "beds": 6, "baths": 5.5, "url": null, "school_district": "Tredyffrin-Easttown", "county_name": "CHESTER", "good_district": false }, "geometry": { "type": "Point", "coordinates": [ -75.446307, 39.999111 ] } },
{ "type": "Feature", "properties": { "id": 204, "address": "338 Stoney Knoll Ln, Lot 10, Berwyn, PA 19312", "city": "Berwyn", "state": "PA", "zip": "19312", "price": 1295000, "beds": null, "baths": null, "url": null, "school_district": "Marple Newtown", "county_name": "DELAWARE", "good_district": false }, "geometry": { "type": "Point", "coordinates": [ -75.4391678, 39.9987011 ] } },
{ "type": "Feature", "properties": { "id": 205, "address": "330 Stoney Knoll Ln, Lot 12, Berwyn, PA 19312", "city": "Berwyn", "state": "PA", "zip": "19312", "price": 1375000, "beds": null, "baths": null, "url": null, "school_district": "Marple Newtown", "county_name": "DELAWARE", "good_district": false }, "geometry": { "type": "Point", "coordinates": [ -75.4398993, 39.9991782 ] } },
{ "type": "Feature", "properties": { "id": 206, "address": "311 Stoney Knoll Ln, Lot 1, Berwyn, PA 19312", "city": "Berwyn", "state": "PA", "zip": "19312", "price": 1350000, "beds": null, "baths": null, "url": null, "school_district": "Marple Newtown", "county_name": "DELAWARE", "good_district": false }, "geometry": { "type": "Point", "coordinates": [ -75.4407356, 40.0014401 ] } },
{ "type": "Feature", "properties": { "id": 207, "address": "322 Stoney Knoll Ln, Lot 14, Berwyn, PA 19312", "city": "Berwyn", "state": "PA", "zip": "19312", "price": 1475000, "beds": null, "baths": null, "url": null, "school_district": "Marple Newtown", "county_name": "DELAWARE", "good_district": false }, "geometry": { "type": "Point", "coordinates": [ -75.4409247, 39.9999795 ] } },
{ "type": "Feature", "properties": { "id": 208, "address": "471 Chandlee Dr, Berwyn, PA 19312", "city": "Berwyn", "state": "PA", "zip": "19312", "price": 769900, "beds": 3, "baths": 2.5, "url": null, "school_district": "Tredyffrin-Easttown", "county_name": "CHESTER", "good_district": false }, "geometry": { "type": "Point", "coordinates": [ -75.44291, 40.033728 ] } },
{ "type": "Feature", "properties": { "id": 209, "address": "17 Grey Ct, Berwyn, PA 19312", "city": "Berwyn", "state": "PA", "zip": "19312", "price": 1099000, "beds": 4, "baths": 4.5, "url": null, "school_district": "Tredyffrin-Easttown", "county_name": "CHESTER", "good_district": false }, "geometry": { "type": "Point", "coordinates": [ -75.449894, 40.04469 ] } },
{ "type": "Feature", "properties": { "id": 210, "address": "407 Margo Ln, Berwyn, PA 19312", "city": "Berwyn", "state": "PA", "zip": "19312", "price": 1177000, "beds": 5, "baths": 3.5, "url": null, "school_district": "Tredyffrin-Easttown", "county_name": "CHESTER", "good_district": false }, "geometry": { "type": "Point", "coordinates": [ -75.439661, 40.054885 ] } },
{ "type": "Feature", "properties": { "id": 211, "address": "61 Cassatt Ave, Berwyn, PA 19312", "city": "Berwyn", "state": "PA", "zip": "19312", "price": 1300000, "beds": 7, "baths": 2.5, "url": null, "school_district": "Tredyffrin-Easttown", "county_name": "CHESTER", "good_district": false }, "geometry": { "type": "Point", "coordinates": [ -75.44326, 40.04911 ] } },
{ "type": "Feature", "properties": { "id": 212, "address": "1295 Argyle Rd, Berwyn, PA 19312", "city": "Berwyn", "state": "PA", "zip": "19312", "price": 1989000, "beds": 4, "baths": 3.5, "url": null, "school_district": "Tredyffrin-Easttown", "county_name": "CHESTER", "good_district": false }, "geometry": { "type": "Point", "coordinates": [ -75.449925, 40.031286 ] } },
{ "type": "Feature", "properties": { "id": 213, "address": "1154 Old Lancaster Rd, Berwyn, PA 19312", "city": "Berwyn", "state": "PA", "zip": "19312", "price": 995000, "beds": 5, "baths": 4.0, "url": null, "school_district": "Tredyffrin-Easttown", "county_name": "CHESTER", "good_district": false }, "geometry": { "type": "Point", "coordinates": [ -75.457607, 40.044788 ] } },
{ "type": "Feature", "properties": { "id": 214, "address": "2207 White Horse Rd, Berwyn, PA 19312", "city": "Berwyn", "state": "PA", "zip": "19312", "price": 3950000, "beds": 6, "baths": 6.0, "url": null, "school_district": "Tredyffrin-Easttown", "county_name": "CHESTER", "good_district": false }, "geometry": { "type": "Point", "coordinates": [ -75.436119, 40.00747 ] } },
{ "type": "Feature", "properties": { "id": 215, "address": "590 Watford Ln, Berwyn, PA 19312", "city": "Berwyn", "state": "PA", "zip": "19312", "price": 950000, "beds": 5, "baths": 3.0, "url": null, "school_district": "Tredyffrin-Easttown", "county_name": "CHESTER", "good_district": false }, "geometry": { "type": "Point", "coordinates": [ -75.434216, 40.04016 ] } },
{ "type": "Feature", "properties": { "id": 216, "address": "31 Old State Rd, Berwyn, PA 19312", "city": "Berwyn", "state": "PA", "zip": "19312", "price": 650000, "beds": 3, "baths": 1.0, "url": null, "school_district": "Tredyffrin-Easttown", "county_name": "CHESTER", "good_district": false }, "geometry": { "type": "Point", "coordinates": [ -75.43644, 40.069995 ] } },
{ "type": "Feature", "properties": { "id": 217, "address": "2490 White Horse Rd, Berwyn, PA 19312", "city": "Berwyn", "state": "PA", "zip": "19312", "price": 3850000, "beds": 4, "baths": 5.5, "url": null, "school_district": "Tredyffrin-Easttown", "county_name": "CHESTER", "good_district": false }, "geometry": { "type": "Point", "coordinates": [ -75.446624, 40.002686 ] } },
{ "type": "Feature", "properties": { "id": 218, "address": "1950 W Chester Pike, Havertown, PA 19083", "city": "Havertown", "state": "PA", "zip": "19083", "price": 140000, "beds": null, "baths": null, "url": null, "school_district": "Haverford Township", "county_name": "DELAWARE", "good_district": true }, "geometry": { "type": "Point", "coordinates": [ -75.33183, 39.97593 ] } },
{ "type": "Feature", "properties": { "id": 219, "address": "505 Glendale Rd, Havertown, PA 19083", "city": "Havertown", "state": "PA", "zip": "19083", "price": 619000, "beds": 3, "baths": 3.0, "url": null, "school_district": "Haverford Township", "county_name": "DELAWARE", "good_district": true }, "geometry": { "type": "Point", "coordinates": [ -75.331011, 39.959439 ] } },
{ "type": "Feature", "properties": { "id": 220, "address": "110 E Township Line Rd, Havertown, PA 19083", "city": "Havertown", "state": "PA", "zip": "19083", "price": 1150000, "beds": 4, "baths": 2.5, "url": null, "school_district": "Haverford Township", "county_name": "DELAWARE", "good_district": true }, "geometry": { "type": "Point", "coordinates": [ -75.29232, 39.9696 ] } },
{ "type": "Feature", "properties": { "id": 221, "address": "221 E Park Rd, Havertown, PA 19083", "city": "Havertown", "state": "PA", "zip": "19083", "price": 1300000, "beds": 4, "baths": 2.5, "url": null, "school_district": "Haverford Township", "county_name": "DELAWARE", "good_district": true }, "geometry": { "type": "Point", "coordinates": [ -75.2921, 39.97014 ] } },
{ "type": "Feature", "properties": { "id": 222, "address": "1901 Pennview Rd, Havertown, PA 19083", "city": "Havertown", "state": "PA", "zip": "19083", "price": 995000, "beds": 7, "baths": 6.5, "url": null, "school_district": "Haverford Township", "county_name": "DELAWARE", "good_district": true }, "geometry": { "type": "Point", "coordinates": [ -75.311846, 39.986721 ] } },
{ "type": "Feature", "properties": { "id": 223, "address": "1111 Wilson Dr, Havertown, PA 19083", "city": "Havertown", "state": "PA", "zip": "19083", "price": 225000, "beds": 3, "baths": 2.0, "url": null, "school_district": "Upper Darby", "county_name": "DELAWARE", "good_district": true }, "geometry": { "type": "Point", "coordinates": [ -75.297714, 39.963068 ] } },
{ "type": "Feature", "properties": { "id": 224, "address": "400 Glendale Rd, Unit A54, Havertown, PA 19083", "city": "Havertown", "state": "PA", "zip": "19083", "price": 215000, "beds": 2, "baths": 1.5, "url": null, "school_district": "Haverford Township", "county_name": "DELAWARE", "good_district": true }, "geometry": { "type": "Point", "coordinates": [ -75.328331, 39.966415 ] } },
{ "type": "Feature", "properties": { "id": 225, "address": "107 Ivy Rock Ln, Havertown, PA 19083", "city": "Havertown", "state": "PA", "zip": "19083", "price": 599900, "beds": 3, "baths": 1.5, "url": null, "school_district": "Haverford Township", "county_name": "DELAWARE", "good_district": true }, "geometry": { "type": "Point", "coordinates": [ -75.32471, 39.973379 ] } },
{ "type": "Feature", "properties": { "id": 226, "address": "606 Valley Rd, Havertown, PA 19083", "city": "Havertown", "state": "PA", "zip": "19083", "price": 748000, "beds": 4, "baths": 2.5, "url": null, "school_district": "Haverford Township", "county_name": "DELAWARE", "good_district": true }, "geometry": { "type": "Point", "coordinates": [ -75.299949, 39.974953 ] } },
{ "type": "Feature", "properties": { "id": 227, "address": "14 Claremont Blvd, Havertown, PA 19083", "city": "Havertown", "state": "PA", "zip": "19083", "price": 1175000, "beds": 4, "baths": 2.5, "url": null, "school_district": "Haverford Township", "county_name": "DELAWARE", "good_district": true }, "geometry": { "type": "Point", "coordinates": [ -75.321504, 39.97222 ] } },
{ "type": "Feature", "properties": { "id": 228, "address": "400 Glendale Rd, Unit E34, Havertown, PA 19083", "city": "Havertown", "state": "PA", "zip": "19083", "price": 219900, "beds": 2, "baths": 1.5, "url": null, "school_district": "Haverford Township", "county_name": "DELAWARE", "good_district": true }, "geometry": { "type": "Point", "coordinates": [ -75.328331, 39.966415 ] } },
{ "type": "Feature", "properties": { "id": 229, "address": "101 N Eagle Rd, Havertown, PA 19083", "city": "Havertown", "state": "PA", "zip": "19083", "price": 499000, "beds": 2, "baths": 2.0, "url": null, "school_district": "Haverford Township", "county_name": "DELAWARE", "good_district": true }, "geometry": { "type": "Point", "coordinates": [ -75.318955, 39.974145 ] } },
{ "type": "Feature", "properties": { "id": 230, "address": "624 Lawson Ave, Havertown, PA 19083", "city": "Havertown", "state": "PA", "zip": "19083", "price": 950000, "beds": 4, "baths": 4.0, "url": null, "school_district": "Haverford Township", "county_name": "DELAWARE", "good_district": true }, "geometry": { "type": "Point", "coordinates": [ -75.289463, 39.984821 ] } },
{ "type": "Feature", "properties": { "id": 231, "address": "104 Gilmore Rd, Havertown, PA 19083", "city": "Havertown", "state": "PA", "zip": "19083", "price": 750000, "beds": 3, "baths": 2.5, "url": null, "school_district": "Haverford Township", "county_name": "DELAWARE", "good_district": true }, "geometry": { "type": "Point", "coordinates": [ -75.303068, 39.968945 ] } },
{ "type": "Feature", "properties": { "id": 232, "address": "1105 Wilson Dr, Havertown, PA 19083", "city": "Havertown", "state": "PA", "zip": "19083", "price": 264900, "beds": 3, "baths": 1.0, "url": null, "school_district": "Upper Darby", "county_name": "DELAWARE", "good_district": true }, "geometry": { "type": "Point", "coordinates": [ -75.297582, 39.962887 ] } },
{ "type": "Feature", "properties": { "id": 233, "address": "447 W Chester Pike, Havertown, PA 19083", "city": "Havertown", "state": "PA", "zip": "19083", "price": 540000, "beds": 3, "baths": null, "url": null, "school_district": "Haverford Township", "county_name": "DELAWARE", "good_district": true }, "geometry": { "type": "Point", "coordinates": [ -75.3045, 39.970816 ] } },
{ "type": "Feature", "properties": { "id": 234, "address": "333 Golf Hills Rd, Havertown, PA 19083", "city": "Havertown", "state": "PA", "zip": "19083", "price": 682500, "beds": 4, "baths": 2.5, "url": null, "school_district": "Haverford Township", "county_name": "DELAWARE", "good_district": true }, "geometry": { "type": "Point", "coordinates": [ -75.331874, 39.985967 ] } },
{ "type": "Feature", "properties": { "id": 235, "address": "502 Darby Rd, Havertown, PA 19083", "city": "Havertown", "state": "PA", "zip": "19083", "price": 595000, "beds": 3, "baths": 1.5, "url": null, "school_district": "Haverford Township", "county_name": "DELAWARE", "good_district": true }, "geometry": { "type": "Point", "coordinates": [ -75.301046, 39.972516 ] } },
{ "type": "Feature", "properties": { "id": 236, "address": "506 Saint Albans Rd, Havertown, PA 19083", "city": "Havertown", "state": "PA", "zip": "19083", "price": 675000, "beds": 3, "baths": 2.0, "url": null, "school_district": "Haverford Township", "county_name": "DELAWARE", "good_district": true }, "geometry": { "type": "Point", "coordinates": [ -75.287409, 39.977636 ] } },
{ "type": "Feature", "properties": { "id": 237, "address": "803 Grove Pl, Havertown, PA 19083", "city": "Havertown", "state": "PA", "zip": "19083", "price": 749000, "beds": 5, "baths": 3.5, "url": null, "school_district": "Haverford Township", "county_name": "DELAWARE", "good_district": true }, "geometry": { "type": "Point", "coordinates": [ -75.284229, 39.979726 ] } },
{ "type": "Feature", "properties": { "id": 238, "address": "349 Glen Gary Dr, Havertown, PA 19083", "city": "Havertown", "state": "PA", "zip": "19083", "price": 685000, "beds": 5, "baths": 3.5, "url": null, "school_district": "Haverford Township", "county_name": "DELAWARE", "good_district": true }, "geometry": { "type": "Point", "coordinates": [ -75.332974, 39.972112 ] } },
{ "type": "Feature", "properties": { "id": 239, "address": "314 Walnut Hill Ln, Havertown, PA 19083", "city": "Havertown", "state": "PA", "zip": "19083", "price": 510000, "beds": 3, "baths": 2.0, "url": null, "school_district": "Haverford Township", "county_name": "DELAWARE", "good_district": true }, "geometry": { "type": "Point", "coordinates": [ -75.330089, 39.969882 ] } },
{ "type": "Feature", "properties": { "id": 240, "address": "649 Washington Ave, Havertown, PA 19083", "city": "Havertown", "state": "PA", "zip": "19083", "price": 599900, "beds": 3, "baths": 1.5, "url": null, "school_district": "Haverford Township", "county_name": "DELAWARE", "good_district": true }, "geometry": { "type": "Point", "coordinates": [ -75.308015, 39.976354 ] } },
{ "type": "Feature", "properties": { "id": 241, "address": "154 Wyndmoor Rd, Havertown, PA 19083", "city": "Havertown", "state": "PA", "zip": "19083", "price": 540000, "beds": 3, "baths": 2.5, "url": null, "school_district": "Haverford Township", "county_name": "DELAWARE", "good_district": true }, "geometry": { "type": "Point", "coordinates": [ -75.322504, 39.97026 ] } },
{ "type": "Feature", "properties": { "id": 242, "address": "217 Harvard Rd, Havertown, PA 19083", "city": "Havertown", "state": "PA", "zip": "19083", "price": 1950000, "beds": 6, "baths": 6.0, "url": null, "school_district": "Haverford Township", "county_name": "DELAWARE", "good_district": true }, "geometry": { "type": "Point", "coordinates": [ -75.311088, 39.979255 ] } },
{ "type": "Feature", "properties": { "id": 243, "address": "33 Fairlamb Ave, Havertown, PA 19083", "city": "Havertown", "state": "PA", "zip": "19083", "price": 625000, "beds": 3, "baths": 2.0, "url": null, "school_district": "Haverford Township", "county_name": "DELAWARE", "good_district": true }, "geometry": { "type": "Point", "coordinates": [ -75.32401, 39.972866 ] } },
{ "type": "Feature", "properties": { "id": 244, "address": "530 Kenmore Rd, Havertown, PA 19083", "city": "Havertown", "state": "PA", "zip": "19083", "price": 1589000, "beds": 5, "baths": 4.5, "url": null, "school_district": "Haverford Township", "county_name": "DELAWARE", "good_district": true }, "geometry": { "type": "Point", "coordinates": [ -75.291674, 39.982572 ] } },
{ "type": "Feature", "properties": { "id": 245, "address": "25 Oak Ln, Havertown, PA 19083", "city": "Havertown", "state": "PA", "zip": "19083", "price": 1395000, "beds": 4, "baths": 4.5, "url": null, "school_district": "Haverford Township", "county_name": "DELAWARE", "good_district": true }, "geometry": { "type": "Point", "coordinates": [ -75.31135, 39.984696 ] } },
{ "type": "Feature", "properties": { "id": 246, "address": "1127 Hollywood Ave, Havertown, PA 19083", "city": "Havertown", "state": "PA", "zip": "19083", "price": 275000, "beds": 3, "baths": 1.5, "url": null, "school_district": "Upper Darby", "county_name": "DELAWARE", "good_district": true }, "geometry": { "type": "Point", "coordinates": [ -75.296808, 39.964143 ] } },
{ "type": "Feature", "properties": { "id": 247, "address": "400 Glendale Rd, Unit G45, Havertown, PA 19083", "city": "Havertown", "state": "PA", "zip": "19083", "price": 175000, "beds": 2, "baths": 2.0, "url": null, "school_district": "Haverford Township", "county_name": "DELAWARE", "good_district": true }, "geometry": { "type": "Point", "coordinates": [ -75.329019, 39.96568 ] } },
{ "type": "Feature", "properties": { "id": 248, "address": "33 W Ardmore Ave, Havertown, PA 19083", "city": "Havertown", "state": "PA", "zip": "19083", "price": 2095000, "beds": 4, "baths": 4.5, "url": null, "school_district": "Haverford Township", "county_name": "DELAWARE", "good_district": true }, "geometry": { "type": "Point", "coordinates": [ -75.32515, 39.992782 ] } },
{ "type": "Feature", "properties": { "id": 249, "address": "1564 Burmont Rd, Havertown, PA 19083", "city": "Havertown", "state": "PA", "zip": "19083", "price": 409900, "beds": 3, "baths": 1.5, "url": null, "school_district": "Haverford Township", "county_name": "DELAWARE", "good_district": true }, "geometry": { "type": "Point", "coordinates": [ -75.328608, 39.958665 ] } },
{ "type": "Feature", "properties": { "id": 250, "address": "400 Glendale Rd, Unit F35, Havertown, PA 19083", "city": "Havertown", "state": "PA", "zip": "19083", "price": 225000, "beds": 2, "baths": 1.5, "url": null, "school_district": "Haverford Township", "county_name": "DELAWARE", "good_district": true }, "geometry": { "type": "Point", "coordinates": [ -75.329868, 39.96528 ] } },
{ "type": "Feature", "properties": { "id": 251, "address": "1423 Lawrence Rd, Havertown, PA 19083", "city": "Havertown", "state": "PA", "zip": "19083", "price": 309900, "beds": 3, "baths": 1.0, "url": null, "school_district": "Haverford Township", "county_name": "DELAWARE", "good_district": true }, "geometry": { "type": "Point", "coordinates": [ -75.321002, 39.983321 ] } }
]
}
