{
"type": "FeatureCollection",
"name": "listings_map_ready",
"crs": { "type": "name", "properties": { "name": "urn:ogc:def:crs:OGC:1.3:CRS84" } },
"features": [
{ "type": "Feature", "properties": { "id": 1, "address": "33 Fairlamb Ave", "city": "Havertown", "state": "PA", "zip": "19083", "price": null, "beds": null, "baths": null, "url": "https://www.redfin.com/PA/Havertown/33-Fairlamb-Ave-19083/home/38833173#overview", "school_district": "Haverford Township", "county_name": "DELAWARE", "good_district": true }, "geometry": { "type": "Point", "coordinates": [ -75.323932823961968, 39.973052793032601 ] } },
{ "type": "Feature", "properties": { "id": 3, "address": "114 Llanfair Rd", "city": "Ardmore", "state": "PA", "zip": "19003", "price": null, "beds": null, "baths": null, "url": "https://www.redfin.com/PA/Ardmore/114-Llanfair-Rd-19003/home/38531600", "school_district": "Lower Merion", "county_name": "MONTGOMERY", "good_district": true }, "geometry": { "type": "Point", "coordinates": [ -75.284324, 40.010432 ] } },
{ "type": "Feature", "properties": { "id": 2, "address": "117 Foster Ave", "city": "Upper Darby", "state": "PA", "zip": "19082", "price": null, "beds": null, "baths": null, "url": "https://www.redfin.com/PA/Upper-Darby/117-Foster-Ave-19082/home/38415658", "school_district": "Upper Darby", "county_name": "DELAWARE", "good_district": true }, "geometry": { "type": "Point", "coordinates": [ -75.289847305003136, 39.969155107226747 ] } }
]
}
